{"type":"FeatureCollection","features":[{"type":"Feature","properties":{"sheet":"soi-57g12-1927","title":"Survey of India one-inch sheet 57 G/12 (Mysore: Bangalore District), third (revised) edition, surveyed 1912-13 and 1924-25, published 1927","year":1927,"edition":1927,"scale":63360,"url":"https://commons.wikimedia.org/wiki/File:Survey_of_India_57_G_12.png","showsAllWater":true,"minAreaM2":4000,"graticuleRmsM":10.8,"shiftToWgs84M":{"east":-100,"north":120},"correction":"translation","controlLakes":76,"offsetBeforeMedianM":161,"residualMedianM":47,"residualP90M":111,"source":"soi-57g12-1927"},"geometry":{"type":"Polygon","coordinates":[[[77.511589,13.251093],[77.517839,13.251093],[77.524089,13.251093],[77.530339,13.251093],[77.536589,13.251093],[77.542839,13.251093],[77.549089,13.251093],[77.555339,13.251093],[77.561589,13.251093],[77.567839,13.251093],[77.574089,13.251093],[77.580339,13.251093],[77.586589,13.251093],[77.592839,13.251093],[77.599089,13.251093],[77.605339,13.251093],[77.611589,13.251093],[77.617839,13.251093],[77.62409,13.251093],[77.63034,13.251093],[77.63659,13.251093],[77.64284,13.251094],[77.64909,13.251094],[77.65534,13.251094],[77.66159,13.251094],[77.66784,13.251094],[77.67409,13.251094],[77.68034,13.251094],[77.68659,13.251094],[77.69284,13.251094],[77.69909,13.251094],[77.70534,13.251094],[77.71159,13.251094],[77.71784,13.251094],[77.72409,13.251094],[77.73034,13.251094],[77.73659,13.251094],[77.74284,13.251094],[77.74909,13.251094],[77.74909,13.244844],[77.74909,13.238594],[77.74909,13.232344],[77.74909,13.226094],[77.74909,13.219844],[77.74909,13.213594],[77.74909,13.207344],[77.74909,13.201094],[77.74909,13.194844],[77.74909,13.188594],[77.74909,13.182344],[77.74909,13.176094],[77.74909,13.169844],[77.74909,13.163594],[77.74909,13.157344],[77.74909,13.151094],[77.74909,13.144844],[77.74909,13.138594],[77.74909,13.132344],[77.749091,13.126094],[77.749091,13.119844],[77.749091,13.113594],[77.749091,13.107344],[77.749091,13.101094],[77.749091,13.094844],[77.749091,13.088594],[77.749091,13.082344],[77.749091,13.076094],[77.749091,13.069844],[77.749091,13.063594],[77.749091,13.057344],[77.749091,13.051094],[77.749091,13.044844],[77.749091,13.038594],[77.749091,13.032344],[77.749091,13.026094],[77.749091,13.019844],[77.749091,13.013594],[77.749091,13.007344],[77.749091,13.001094],[77.742841,13.001094],[77.736591,13.001094],[77.730341,13.001094],[77.724091,13.001094],[77.717841,13.001094],[77.711591,13.001094],[77.705341,13.001094],[77.699091,13.001093],[77.692841,13.001093],[77.686591,13.001093],[77.68034,13.001093],[77.67409,13.001093],[77.66784,13.001093],[77.66159,13.001093],[77.65534,13.001093],[77.64909,13.001093],[77.64284,13.001093],[77.63659,13.001093],[77.63034,13.001093],[77.62409,13.001093],[77.61784,13.001093],[77.61159,13.001093],[77.60534,13.001093],[77.59909,13.001093],[77.59284,13.001093],[77.58659,13.001093],[77.58034,13.001093],[77.57409,13.001093],[77.56784,13.001093],[77.56159,13.001093],[77.55534,13.001093],[77.54909,13.001093],[77.54284,13.001093],[77.53659,13.001093],[77.53034,13.001093],[77.52409,13.001093],[77.51784,13.001093],[77.51159,13.001093],[77.50534,13.001093],[77.49909,13.001093],[77.49909,13.007343],[77.49909,13.013593],[77.49909,13.019843],[77.49909,13.026093],[77.499089,13.032343],[77.499089,13.038593],[77.499089,13.044843],[77.499089,13.051093],[77.499089,13.057343],[77.499089,13.063593],[77.499089,13.069843],[77.499089,13.076093],[77.499089,13.082343],[77.499089,13.088593],[77.499089,13.094843],[77.499089,13.101093],[77.499089,13.107343],[77.499089,13.113593],[77.499089,13.119843],[77.499089,13.126093],[77.499089,13.132343],[77.499089,13.138593],[77.499089,13.144843],[77.499089,13.151093],[77.499089,13.157343],[77.499089,13.163593],[77.499089,13.169843],[77.499089,13.176093],[77.499089,13.182343],[77.499089,13.188593],[77.499089,13.194843],[77.499089,13.201093],[77.499089,13.207343],[77.499089,13.213593],[77.499089,13.219843],[77.499089,13.226093],[77.499089,13.232343],[77.499089,13.238593],[77.499089,13.244843],[77.499089,13.251093],[77.505339,13.251093],[77.511589,13.251093]]]}},{"type":"Feature","properties":{"sheet":"soi-57h9-1945","title":"Survey of India one-inch sheet 57 H/9 (Madras & Mysore: Bangalore District), fifth edition, surveyed 1912-13 and 1924-25, revised 1943, published 1945","year":1945,"edition":1945,"scale":63360,"url":"https://commons.wikimedia.org/wiki/File:Survey_of_India_57_H_9.png","showsAllWater":false,"minAreaM2":20000,"graticuleRmsM":null,"shiftToWgs84M":{"east":-140,"north":110},"correction":"translation","controlLakes":85,"offsetBeforeMedianM":202,"residualMedianM":81,"residualP90M":257,"source":"soi-57h9-1945"},"geometry":{"type":"Polygon","coordinates":[[[77.511035,13.000918],[77.517285,13.000918],[77.523535,13.000918],[77.529785,13.000918],[77.536035,13.000918],[77.542285,13.000918],[77.548535,13.000918],[77.554785,13.000918],[77.561035,13.000918],[77.567285,13.000918],[77.573535,13.000918],[77.579785,13.000918],[77.586035,13.000918],[77.592285,13.000918],[77.598535,13.000918],[77.604786,13.000918],[77.611036,13.000918],[77.617286,13.000918],[77.623536,13.000918],[77.629786,13.000918],[77.636036,13.000918],[77.642286,13.000918],[77.648536,13.000918],[77.654786,13.000918],[77.661036,13.000918],[77.667286,13.000918],[77.673536,13.000918],[77.679786,13.000918],[77.686036,13.000919],[77.692286,13.000919],[77.698536,13.000919],[77.704786,13.000919],[77.711036,13.000919],[77.717286,13.000919],[77.723536,13.000919],[77.729786,13.000919],[77.736036,13.000919],[77.742286,13.000919],[77.748536,13.000919],[77.748536,12.994669],[77.748536,12.988419],[77.748536,12.982169],[77.748536,12.975919],[77.748536,12.969669],[77.748536,12.963419],[77.748536,12.957169],[77.748536,12.950919],[77.748536,12.944669],[77.748537,12.938419],[77.748537,12.932169],[77.748537,12.925919],[77.748537,12.919669],[77.748537,12.913419],[77.748537,12.907169],[77.748537,12.900919],[77.748537,12.894669],[77.748537,12.888419],[77.748537,12.882169],[77.748537,12.875919],[77.748537,12.869669],[77.748537,12.863419],[77.748537,12.857169],[77.748537,12.850919],[77.748537,12.844669],[77.748537,12.838419],[77.748537,12.832169],[77.748537,12.825919],[77.748537,12.819669],[77.748537,12.813419],[77.748537,12.807169],[77.748537,12.800919],[77.748537,12.794669],[77.748537,12.788419],[77.748537,12.782169],[77.748537,12.775919],[77.748537,12.769669],[77.748537,12.763419],[77.748537,12.757169],[77.748537,12.750919],[77.742287,12.750919],[77.736037,12.750918],[77.729787,12.750918],[77.723537,12.750918],[77.717287,12.750918],[77.711037,12.750918],[77.704787,12.750918],[77.698537,12.750918],[77.692287,12.750918],[77.686037,12.750918],[77.679787,12.750918],[77.673537,12.750918],[77.667287,12.750918],[77.661037,12.750918],[77.654787,12.750918],[77.648537,12.750918],[77.642287,12.750918],[77.636037,12.750918],[77.629787,12.750918],[77.623537,12.750918],[77.617287,12.750918],[77.611037,12.750918],[77.604787,12.750918],[77.598537,12.750918],[77.592287,12.750918],[77.586037,12.750918],[77.579787,12.750918],[77.573537,12.750918],[77.567287,12.750918],[77.561037,12.750918],[77.554787,12.750918],[77.548537,12.750918],[77.542286,12.750918],[77.536036,12.750918],[77.529786,12.750918],[77.523536,12.750917],[77.517286,12.750917],[77.511036,12.750917],[77.504786,12.750917],[77.498536,12.750917],[77.498536,12.757167],[77.498536,12.763417],[77.498536,12.769667],[77.498536,12.775917],[77.498536,12.782167],[77.498536,12.788417],[77.498536,12.794667],[77.498536,12.800917],[77.498536,12.807167],[77.498536,12.813417],[77.498536,12.819667],[77.498536,12.825917],[77.498536,12.832167],[77.498536,12.838417],[77.498536,12.844667],[77.498536,12.850917],[77.498536,12.857167],[77.498536,12.863417],[77.498536,12.869667],[77.498536,12.875917],[77.498536,12.882167],[77.498536,12.888417],[77.498536,12.894667],[77.498536,12.900917],[77.498535,12.907168],[77.498535,12.913418],[77.498535,12.919668],[77.498535,12.925918],[77.498535,12.932168],[77.498535,12.938418],[77.498535,12.944668],[77.498535,12.950918],[77.498535,12.957168],[77.498535,12.963418],[77.498535,12.969668],[77.498535,12.975918],[77.498535,12.982168],[77.498535,12.988418],[77.498535,12.994668],[77.498535,13.000918],[77.504785,13.000918],[77.511035,13.000918]]]}},{"type":"Feature","properties":{"sheet":"ams-nd43-12-1955","title":"U.S. Army Map Service, India and Pakistan 1:250,000, series U502, sheet ND 43-12 Tumkur, edition 1-AMS, compiled 1954 from Survey of India one-inch maps of 1945-46","year":1955,"edition":1955,"scale":250000,"url":"https://commons.wikimedia.org/wiki/File:Map_India_and_Pakistan_1-250,000_Tile_ND_43-12_Tumkur.jpg","showsAllWater":true,"minAreaM2":50000,"graticuleRmsM":null,"shiftToWgs84M":{"east":0,"north":0},"correction":"affine","controlLakes":45,"offsetBeforeMedianM":135,"residualMedianM":139,"residualP90M":335,"source":"ams-nd43-12-1955"},"geometry":{"type":"Polygon","coordinates":[[[77.501507,13.450564],[77.501401,13.425489],[77.501295,13.400415],[77.501189,13.37534],[77.501084,13.350266],[77.500978,13.325191],[77.500872,13.300117],[77.500766,13.275043],[77.50066,13.249968],[77.500555,13.224894],[77.500449,13.199819],[77.500343,13.174745],[77.500237,13.14967],[77.500132,13.124596],[77.500026,13.099521],[77.499921,13.074447],[77.499815,13.049372],[77.499709,13.024298],[77.499604,12.999223],[77.461989,12.999284],[77.424374,12.999345],[77.38676,12.999405],[77.349145,12.999466],[77.31153,12.999527],[77.273915,12.999587],[77.236301,12.999648],[77.232554,12.999654],[77.171937,13.123513],[77.17142,13.124606],[77.138785,13.196065],[77.137193,13.200044],[77.135992,13.204152],[77.135193,13.208354],[77.134802,13.21261],[77.134823,13.216884],[77.135257,13.221137],[77.136099,13.22533],[77.137341,13.229427],[77.138974,13.23339],[77.155268,13.268118],[77.157625,13.272492],[77.160456,13.276588],[77.321507,13.483849],[77.325112,13.487948],[77.329191,13.491595],[77.352229,13.509841],[77.355615,13.512282],[77.359214,13.51441],[77.362996,13.516209],[77.366929,13.517664],[77.367722,13.517918],[77.369886,13.518552],[77.372155,13.51916],[77.376478,13.520101],[77.380874,13.520632],[77.385301,13.520749],[77.38972,13.520449],[77.419825,13.516983],[77.425318,13.516018],[77.430652,13.514412],[77.501667,13.488312],[77.501613,13.475638],[77.501507,13.450564]]]}},{"type":"Feature","properties":{"sheet":"ams-nd43-16-1955","title":"U.S. Army Map Service, India and Pakistan 1:250,000, series U502, sheet ND 43-16 Mysore, edition 1-AMS, compiled 1954 from Survey of India one-inch maps of 1945-46","year":1955,"edition":1955,"scale":250000,"url":"https://commons.wikimedia.org/wiki/File:Map_India_and_Pakistan_1-250,000_Tile_ND_43-16_Mysore.jpg","showsAllWater":true,"minAreaM2":50000,"graticuleRmsM":null,"shiftToWgs84M":{"east":-175,"north":200},"correction":"translation","controlLakes":4,"offsetBeforeMedianM":236,"residualMedianM":93,"residualP90M":110,"source":"ams-nd43-16-1955"},"geometry":{"type":"Polygon","coordinates":[[[77.273284,13.001258],[77.310784,13.001258],[77.348284,13.001258],[77.385784,13.001258],[77.423285,13.001258],[77.460785,13.001259],[77.498285,13.001259],[77.498285,12.976259],[77.498285,12.951259],[77.498285,12.926259],[77.498286,12.901259],[77.498286,12.876259],[77.498286,12.851259],[77.498286,12.826259],[77.498286,12.801259],[77.498286,12.776259],[77.498287,12.751259],[77.498287,12.726258],[77.498287,12.701258],[77.498287,12.67785],[77.472843,12.686173],[77.468873,12.687675],[77.465061,12.689531],[77.46144,12.691724],[77.458041,12.694237],[77.454892,12.697047],[77.317884,12.8311],[77.314403,12.834913],[77.311383,12.839089],[77.308865,12.843572],[77.23177,13.001258],[77.235783,13.001257],[77.273284,13.001258]]]}},{"type":"Feature","properties":{"sheet":"ams-nd44-9-1955","title":"U.S. Army Map Service, India and Pakistan 1:250,000, series U502, sheet ND 44-9 Kolar, edition 1-AMS, compiled 1954 from Survey of India one-inch maps of 1945-46","year":1955,"edition":1955,"scale":250000,"url":"https://commons.wikimedia.org/wiki/File:Map_India_and_Pakistan_1-250,000_Tile_ND_44-9_Kolar.jpg","showsAllWater":true,"minAreaM2":50000,"graticuleRmsM":null,"shiftToWgs84M":{"east":-175,"north":100},"correction":"affine","controlLakes":119,"offsetBeforeMedianM":230,"residualMedianM":96,"residualP90M":194,"source":"ams-nd44-9-1955"},"geometry":{"type":"Polygon","coordinates":[[[77.911226,13.000997],[77.873736,13.001051],[77.836247,13.001105],[77.798757,13.001159],[77.761267,13.001212],[77.723777,13.001266],[77.686287,13.00132],[77.648798,13.001374],[77.611308,13.001427],[77.573818,13.001481],[77.536328,13.001535],[77.498838,13.001588],[77.498788,13.026566],[77.498738,13.051543],[77.498687,13.07652],[77.498637,13.101498],[77.498587,13.126475],[77.498537,13.151452],[77.498486,13.17643],[77.498436,13.201407],[77.498386,13.226384],[77.498335,13.251361],[77.498285,13.276339],[77.498235,13.301316],[77.498184,13.326293],[77.498134,13.351271],[77.498084,13.376248],[77.498033,13.401225],[77.497983,13.426203],[77.497933,13.45118],[77.497882,13.476157],[77.497855,13.489714],[77.767756,13.390303],[77.770979,13.388975],[77.774089,13.387412],[77.977412,13.275406],[77.980779,13.273358],[77.983954,13.271034],[77.986914,13.268451],[77.987432,13.267958],[77.990662,13.264551],[77.992809,13.262039],[77.995621,13.258387],[77.998041,13.254476],[78.000045,13.250344],[78.000098,13.25022],[78.001733,13.245684],[78.002867,13.241004],[78.003486,13.236233],[78.003584,13.231424],[77.999526,13.112267],[77.999064,13.107218],[77.998028,13.102252],[77.99643,13.097431],[77.958242,13.000931],[77.948716,13.000944],[77.911226,13.000997]]]}},{"type":"Feature","properties":{"sheet":"ams-nd44-13-1955","title":"U.S. Army Map Service, India and Pakistan 1:250,000, series U502, sheet ND 44-13 Bangalore, edition 1-AMS, compiled 1954 from Survey of India one-inch maps of 1945-46","year":1955,"edition":1955,"scale":250000,"url":"https://commons.wikimedia.org/wiki/File:Map_India_and_Pakistan_1-250,000_Tile_ND_44-13_Bangalore.jpg","showsAllWater":true,"minAreaM2":50000,"graticuleRmsM":null,"shiftToWgs84M":{"east":-175,"north":25},"correction":"translation","controlLakes":50,"offsetBeforeMedianM":215,"residualMedianM":103,"residualP90M":214,"source":"ams-nd44-13-1955"},"geometry":{"type":"Polygon","coordinates":[[[77.610775,13.000243],[77.648275,13.000243],[77.685775,13.000244],[77.723275,13.000244],[77.760775,13.000244],[77.798276,13.000244],[77.835776,13.000245],[77.873276,13.000245],[77.910776,13.000245],[77.948276,13.000245],[77.957971,13.000246],[77.899584,12.8525],[77.899205,12.851571],[77.89901,12.851107],[77.896058,12.845312],[77.78962,12.669048],[77.787263,12.665527],[77.784581,12.662236],[77.7816,12.659205],[77.778343,12.65646],[77.743497,12.62975],[77.740185,12.627434],[77.736678,12.625415],[77.723811,12.618739],[77.719675,12.616844],[77.715367,12.615361],[77.710931,12.614305],[77.70641,12.613685],[77.701849,12.613509],[77.701684,12.613511],[77.696911,12.613803],[77.692195,12.614581],[77.687587,12.615835],[77.498277,12.677853],[77.498277,12.700242],[77.498277,12.725242],[77.498277,12.750242],[77.498276,12.775242],[77.498276,12.800242],[77.498276,12.825242],[77.498276,12.850242],[77.498276,12.875242],[77.498276,12.900242],[77.498275,12.925242],[77.498275,12.950242],[77.498275,12.975242],[77.498275,13.000242],[77.535775,13.000243],[77.573275,13.000243],[77.610775,13.000243]],[[77.566613,12.995451],[77.563714,12.992958],[77.563717,12.991892],[77.564813,12.990475],[77.564821,12.988344],[77.564099,12.986921],[77.563743,12.98479],[77.565566,12.983373],[77.565571,12.981953],[77.562312,12.978393],[77.560132,12.978033],[77.558681,12.977319],[77.557956,12.976607],[77.557961,12.975186],[77.559057,12.973768],[77.560513,12.973417],[77.560877,12.973062],[77.561604,12.973064],[77.562699,12.972001],[77.562702,12.971291],[77.563431,12.970583],[77.563795,12.970584],[77.565254,12.969167],[77.565255,12.968812],[77.567443,12.967041],[77.567451,12.96491],[77.566364,12.963842],[77.564549,12.963127],[77.563462,12.962059],[77.562009,12.9617],[77.560923,12.960632],[77.560926,12.959567],[77.56202,12.958859],[77.563475,12.958508],[77.565299,12.956736],[77.565307,12.954606],[77.564944,12.95425],[77.564947,12.953539],[77.565677,12.952831],[77.566768,12.952478],[77.567863,12.951416],[77.567868,12.949995],[77.566057,12.948215],[77.566059,12.947504],[77.567516,12.946798],[77.56861,12.945735],[77.570065,12.945384],[77.57116,12.944321],[77.571166,12.942545],[77.569719,12.940766],[77.569722,12.9397],[77.570815,12.938993],[77.571541,12.93935],[77.571906,12.938995],[77.575904,12.939005],[77.576266,12.939361],[77.578811,12.939368],[77.579536,12.939725],[77.58026,12.940792],[77.580232,12.948605],[77.581319,12.949673],[77.582408,12.950031],[77.583494,12.951099],[77.586397,12.952527],[77.588207,12.954662],[77.590022,12.955377],[77.592559,12.957514],[77.593286,12.957516],[77.593649,12.957872],[77.594013,12.957517],[77.595101,12.95823],[77.595099,12.958941],[77.596548,12.960365],[77.597275,12.960366],[77.598726,12.96108],[77.599091,12.960726],[77.599818,12.960727],[77.600912,12.959665],[77.600915,12.958954],[77.602008,12.958247],[77.60346,12.958605],[77.603823,12.958961],[77.604187,12.958607],[77.604914,12.958609],[77.607103,12.956483],[77.608559,12.955776],[77.609286,12.955778],[77.61038,12.954715],[77.610384,12.95365],[77.611477,12.952942],[77.612565,12.953655],[77.612562,12.954365],[77.613284,12.955787],[77.614371,12.956855],[77.615098,12.956857],[77.61546,12.957213],[77.616917,12.956506],[77.619462,12.956157],[77.620913,12.957225],[77.621639,12.957227],[77.623817,12.958297],[77.624541,12.959009],[77.624539,12.95972],[77.626713,12.961855],[77.62671,12.962566],[77.625251,12.963983],[77.625238,12.967889],[77.627775,12.970026],[77.627773,12.970736],[77.629584,12.972516],[77.629575,12.975357],[77.628116,12.976774],[77.628111,12.978195],[77.630647,12.980686],[77.630645,12.981397],[77.629552,12.982104],[77.628825,12.982103],[77.627731,12.983166],[77.627726,12.984586],[77.628089,12.984942],[77.628086,12.985652],[77.627355,12.986716],[77.627351,12.988137],[77.628075,12.988849],[77.628073,12.989559],[77.628796,12.990626],[77.629153,12.992757],[77.628423,12.993466],[77.627331,12.993819],[77.625873,12.995236],[77.625863,12.998077],[77.624039,12.999849],[77.623311,13.000202],[77.622585,12.999845],[77.620404,12.99984],[77.620039,13.000195],[77.619312,13.000193],[77.61895,12.999837],[77.610225,12.999817],[77.609862,12.999461],[77.608407,12.999813],[77.608042,13.000167],[77.60768,12.999811],[77.604044,12.999803],[77.602593,12.999089],[77.600775,12.999085],[77.60041,12.999439],[77.599684,12.999082],[77.598235,12.997658],[77.597508,12.997657],[77.597146,12.997301],[77.596781,12.997655],[77.596054,12.997653],[77.59423,12.999425],[77.593501,12.999778],[77.584776,12.999757],[77.584048,13.000111],[77.583685,12.999755],[77.578959,12.999743],[77.576781,12.998672],[77.576417,12.999027],[77.575689,12.999025],[77.573504,13.000085],[77.570959,13.000079],[77.570597,12.999723],[77.569869,13.000076],[77.568414,13.000072],[77.5666,12.999003],[77.566613,12.995451]]]}},{"type":"Feature","properties":{"sheet":"soi-57g8-1914","title":"Survey of India one-inch sheet 57 G/8 (Mysore: Bangalore District), published 1914","year":1914,"edition":1914,"scale":63360,"url":"https://zenodo.org/records/8388121/files/57%20G%5D08%20Bangalore%20District%20%281914%29.jpg","showsAllWater":true,"minAreaM2":5000,"graticuleRmsM":11.0,"shiftToWgs84M":{"east":-120,"north":150},"correction":"translation","controlLakes":8,"offsetBeforeMedianM":218,"residualMedianM":127,"residualP90M":204,"source":"soi-57g8-1914"},"geometry":{"type":"Polygon","coordinates":[[[77.261401,13.250823],[77.267651,13.250823],[77.273901,13.250823],[77.280151,13.250823],[77.286401,13.250823],[77.292651,13.250823],[77.298901,13.250823],[77.305151,13.250823],[77.311401,13.250823],[77.317651,13.250823],[77.323901,13.250823],[77.330151,13.250823],[77.336401,13.250823],[77.342651,13.250823],[77.348901,13.250823],[77.355151,13.250823],[77.361401,13.250823],[77.367651,13.250823],[77.373901,13.250823],[77.380151,13.250823],[77.386401,13.250823],[77.392651,13.250824],[77.398901,13.250824],[77.405151,13.250824],[77.411401,13.250824],[77.417651,13.250824],[77.423901,13.250824],[77.430151,13.250824],[77.436401,13.250824],[77.442651,13.250824],[77.448901,13.250824],[77.455151,13.250824],[77.461401,13.250824],[77.467652,13.250824],[77.473902,13.250824],[77.480152,13.250824],[77.486402,13.250824],[77.492652,13.250824],[77.498902,13.250824],[77.498902,13.244574],[77.498902,13.238324],[77.498902,13.232074],[77.498902,13.225824],[77.498902,13.219574],[77.498902,13.213324],[77.498902,13.207074],[77.498902,13.200824],[77.498902,13.194574],[77.498902,13.188324],[77.498902,13.182074],[77.498902,13.175824],[77.498902,13.169574],[77.498902,13.163324],[77.498902,13.157074],[77.498902,13.150824],[77.498902,13.144574],[77.498902,13.138324],[77.498902,13.132074],[77.498902,13.125824],[77.498902,13.119574],[77.498902,13.113324],[77.498902,13.107074],[77.498902,13.100824],[77.498902,13.094574],[77.498902,13.088324],[77.498902,13.082074],[77.498902,13.075824],[77.498902,13.069574],[77.498902,13.063324],[77.498902,13.057074],[77.498902,13.050824],[77.498902,13.044574],[77.498902,13.038324],[77.498902,13.032074],[77.498903,13.025824],[77.498903,13.019574],[77.498903,13.013324],[77.498903,13.007074],[77.498903,13.000824],[77.492653,13.000824],[77.486403,13.000824],[77.480153,13.000824],[77.473903,13.000824],[77.467652,13.000824],[77.461402,13.000824],[77.455152,13.000824],[77.448902,13.000824],[77.442652,13.000824],[77.436402,13.000823],[77.430152,13.000823],[77.423902,13.000823],[77.417652,13.000823],[77.411402,13.000823],[77.405152,13.000823],[77.398902,13.000823],[77.392652,13.000823],[77.386402,13.000823],[77.380152,13.000823],[77.373902,13.000823],[77.367652,13.000823],[77.361402,13.000823],[77.355152,13.000823],[77.348902,13.000823],[77.342652,13.000823],[77.336402,13.000823],[77.330152,13.000823],[77.323902,13.000823],[77.317652,13.000823],[77.311402,13.000823],[77.305152,13.000823],[77.298902,13.000823],[77.292652,13.000823],[77.286402,13.000823],[77.280152,13.000823],[77.273902,13.000823],[77.267652,13.000823],[77.261402,13.000823],[77.255152,13.000823],[77.248902,13.000823],[77.248902,13.007073],[77.248902,13.013323],[77.248902,13.019573],[77.248901,13.025823],[77.248901,13.032073],[77.248901,13.038323],[77.248901,13.044573],[77.248901,13.050823],[77.248901,13.057073],[77.248901,13.063323],[77.248901,13.069573],[77.248901,13.075823],[77.248901,13.082073],[77.248901,13.088323],[77.248901,13.094573],[77.248901,13.100823],[77.248901,13.107073],[77.248901,13.113323],[77.248901,13.119573],[77.248901,13.125823],[77.248901,13.132073],[77.248901,13.138323],[77.248901,13.144573],[77.248901,13.150823],[77.248901,13.157073],[77.248901,13.163323],[77.248901,13.169573],[77.248901,13.175823],[77.248901,13.182073],[77.248901,13.188323],[77.248901,13.194573],[77.248901,13.200823],[77.248901,13.207073],[77.248901,13.213323],[77.248901,13.219573],[77.248901,13.225823],[77.248901,13.232073],[77.248901,13.238323],[77.248901,13.244573],[77.248901,13.250823],[77.255151,13.250823],[77.261401,13.250823]]]}},{"type":"Feature","properties":{"sheet":"soi-57g16-1914","title":"Survey of India one-inch sheet 57 G/16 (Mysore: Bangalore District), published 1914","year":1914,"edition":1914,"scale":63360,"url":"https://zenodo.org/records/8388121/files/57%20G%5D16%20Bangalore%20District%20%281914%29.jpg","showsAllWater":true,"minAreaM2":5000,"graticuleRmsM":7.7,"shiftToWgs84M":{"east":-90,"north":130},"correction":"translation","controlLakes":8,"offsetBeforeMedianM":204,"residualMedianM":120,"residualP90M":192,"source":"soi-57g16-1914"},"geometry":{"type":"Polygon","coordinates":[[[77.761638,13.251229],[77.767888,13.251229],[77.774138,13.251229],[77.780388,13.251229],[77.786638,13.251229],[77.792888,13.251229],[77.799138,13.251229],[77.805388,13.251229],[77.811638,13.251229],[77.817888,13.251229],[77.824138,13.251229],[77.830388,13.251229],[77.836638,13.251229],[77.842888,13.251229],[77.849138,13.251229],[77.855388,13.251229],[77.861638,13.251229],[77.867888,13.251229],[77.874138,13.251229],[77.880389,13.251229],[77.886639,13.251229],[77.892889,13.251229],[77.899139,13.251229],[77.905389,13.251229],[77.911639,13.251229],[77.917889,13.251229],[77.924139,13.251229],[77.930389,13.251229],[77.936639,13.251229],[77.942889,13.251229],[77.949139,13.251229],[77.955389,13.251229],[77.961639,13.251229],[77.967889,13.251229],[77.974139,13.251229],[77.980389,13.251229],[77.986639,13.251229],[77.992889,13.251229],[77.999139,13.251229],[77.999139,13.244979],[77.999139,13.238729],[77.999139,13.232479],[77.999139,13.226229],[77.999139,13.219979],[77.999139,13.213729],[77.999139,13.207479],[77.999139,13.201229],[77.999139,13.194979],[77.999139,13.188729],[77.999139,13.182479],[77.999139,13.176229],[77.999139,13.169979],[77.999139,13.163729],[77.999139,13.157479],[77.999139,13.151229],[77.999139,13.144979],[77.999139,13.138729],[77.99914,13.132479],[77.99914,13.126229],[77.99914,13.119979],[77.99914,13.113729],[77.99914,13.108045],[77.999064,13.107218],[77.998028,13.102252],[77.99643,13.097431],[77.95836,13.001229],[77.95539,13.001229],[77.94914,13.001229],[77.942889,13.001229],[77.936639,13.001229],[77.930389,13.001229],[77.924139,13.001229],[77.917889,13.001229],[77.911639,13.001229],[77.905389,13.001229],[77.899139,13.001229],[77.892889,13.001229],[77.886639,13.001229],[77.880389,13.001229],[77.874139,13.001229],[77.867889,13.001229],[77.861639,13.001229],[77.855389,13.001229],[77.849139,13.001229],[77.842889,13.001229],[77.836639,13.001229],[77.830389,13.001229],[77.824139,13.001229],[77.817889,13.001229],[77.811639,13.001229],[77.805389,13.001229],[77.799139,13.001229],[77.792889,13.001229],[77.786639,13.001229],[77.780389,13.001229],[77.774139,13.001229],[77.767889,13.001229],[77.761638,13.001229],[77.755388,13.001229],[77.749138,13.001229],[77.749138,13.007479],[77.749138,13.013729],[77.749138,13.019979],[77.749138,13.026229],[77.749138,13.032479],[77.749138,13.038729],[77.749138,13.044979],[77.749138,13.051229],[77.749138,13.057479],[77.749138,13.063729],[77.749138,13.069979],[77.749138,13.076229],[77.749138,13.082479],[77.749138,13.088729],[77.749138,13.094979],[77.749138,13.101229],[77.749138,13.107479],[77.749138,13.113729],[77.749138,13.119979],[77.749138,13.126229],[77.749138,13.132479],[77.749138,13.138729],[77.749138,13.144979],[77.749138,13.151229],[77.749138,13.157479],[77.749138,13.163729],[77.749138,13.169979],[77.749138,13.176229],[77.749138,13.182479],[77.749138,13.188729],[77.749138,13.194979],[77.749138,13.201229],[77.749138,13.207479],[77.749138,13.213729],[77.749138,13.219979],[77.749138,13.226229],[77.749138,13.232479],[77.749138,13.238729],[77.749138,13.244979],[77.749138,13.251229],[77.755388,13.251229],[77.761638,13.251229]]]}},{"type":"Feature","properties":{"sheet":"soi-57h5-1914","title":"Survey of India one-inch sheet 57 H/5 (Mysore: Bangalore District), published 1914","year":1914,"edition":1914,"scale":63360,"url":"https://zenodo.org/records/8388121/files/57%20H%5D05%20Bangalore%20District%20%281914%29.jpg","showsAllWater":true,"minAreaM2":5000,"graticuleRmsM":8.0,"shiftToWgs84M":{"east":-130,"north":110},"correction":"affine","controlLakes":19,"offsetBeforeMedianM":177,"residualMedianM":44,"residualP90M":106,"source":"soi-57h5-1914"},"geometry":{"type":"Polygon","coordinates":[[[77.26183,13.001599],[77.268065,13.001575],[77.274299,13.00155],[77.280534,13.001525],[77.286768,13.001501],[77.293003,13.001476],[77.299237,13.001451],[77.305472,13.001427],[77.311706,13.001402],[77.31794,13.001377],[77.324175,13.001352],[77.330409,13.001328],[77.336644,13.001303],[77.342878,13.001278],[77.349113,13.001254],[77.355347,13.001229],[77.361582,13.001204],[77.367816,13.001179],[77.374051,13.001155],[77.380285,13.00113],[77.386519,13.001105],[77.392754,13.001081],[77.398988,13.001056],[77.405223,13.001031],[77.411457,13.001007],[77.417692,13.000982],[77.423926,13.000957],[77.430161,13.000932],[77.436395,13.000908],[77.442629,13.000883],[77.448864,13.000858],[77.455098,13.000834],[77.461333,13.000809],[77.467567,13.000784],[77.473802,13.00076],[77.480036,13.000735],[77.48627,13.00071],[77.492505,13.000686],[77.498739,13.000661],[77.498739,12.994424],[77.49874,12.988186],[77.49874,12.981949],[77.49874,12.975712],[77.498741,12.969475],[77.498741,12.963237],[77.498741,12.957],[77.498741,12.950763],[77.498742,12.944525],[77.498742,12.938288],[77.498742,12.932051],[77.498742,12.925814],[77.498743,12.919576],[77.498743,12.913339],[77.498743,12.907102],[77.498744,12.900865],[77.498744,12.894627],[77.498744,12.88839],[77.498744,12.882153],[77.498745,12.875916],[77.498745,12.869678],[77.498745,12.863441],[77.498745,12.857204],[77.498746,12.850967],[77.498746,12.844729],[77.498746,12.838492],[77.498746,12.832255],[77.498747,12.826017],[77.498747,12.81978],[77.498747,12.813543],[77.498748,12.807306],[77.498748,12.801068],[77.498748,12.794831],[77.498748,12.788594],[77.498749,12.782357],[77.498749,12.776119],[77.498749,12.769882],[77.498749,12.763645],[77.49875,12.757408],[77.49875,12.75117],[77.492515,12.751195],[77.486281,12.75122],[77.480047,12.751245],[77.473812,12.751269],[77.467578,12.751294],[77.461343,12.751319],[77.455109,12.751343],[77.448874,12.751368],[77.44264,12.751393],[77.436405,12.751418],[77.430171,12.751442],[77.423937,12.751467],[77.417702,12.751492],[77.411468,12.751517],[77.405233,12.751541],[77.399195,12.751565],[77.317884,12.8311],[77.314403,12.834913],[77.311383,12.839089],[77.308865,12.843572],[77.249363,12.96529],[77.249363,12.970463],[77.249362,12.9767],[77.249362,12.982937],[77.249362,12.989174],[77.249362,12.995412],[77.249361,13.001649],[77.255596,13.001624],[77.26183,13.001599]]]}},{"type":"Feature","properties":{"sheet":"soi-57h10-1915","title":"Survey of India one-inch sheet 57 H/10 (Mysore: Bangalore District), published 1915","year":1915,"edition":1914,"scale":63360,"url":"https://zenodo.org/records/8388121/files/57%20H%5D10%20Bangalore%20District%20%281915%29.jpg","showsAllWater":true,"minAreaM2":5000,"graticuleRmsM":3.9,"shiftToWgs84M":{"east":-150,"north":130},"correction":"translation","controlLakes":7,"offsetBeforeMedianM":216,"residualMedianM":53,"residualP90M":111,"source":"soi-57h10-1915"},"geometry":{"type":"Polygon","coordinates":[[[77.511041,12.751369],[77.517291,12.751369],[77.523541,12.751369],[77.529791,12.751369],[77.536041,12.751369],[77.542291,12.751369],[77.548541,12.751369],[77.554791,12.751369],[77.561041,12.751369],[77.567291,12.751369],[77.573541,12.751369],[77.579791,12.751369],[77.586041,12.751369],[77.592291,12.751369],[77.598541,12.75137],[77.604791,12.75137],[77.611041,12.75137],[77.617291,12.75137],[77.623542,12.75137],[77.629792,12.75137],[77.636042,12.75137],[77.642292,12.75137],[77.648542,12.75137],[77.654792,12.75137],[77.661042,12.75137],[77.667292,12.75137],[77.673542,12.75137],[77.679792,12.75137],[77.686042,12.75137],[77.692292,12.75137],[77.698542,12.75137],[77.704792,12.75137],[77.711042,12.75137],[77.717292,12.75137],[77.723542,12.75137],[77.729792,12.75137],[77.736042,12.75137],[77.742292,12.75137],[77.748542,12.75137],[77.748542,12.74512],[77.748542,12.73887],[77.748542,12.73262],[77.748542,12.72637],[77.748542,12.72012],[77.748543,12.71387],[77.748543,12.70762],[77.748543,12.70137],[77.748543,12.69512],[77.748543,12.68887],[77.748543,12.68262],[77.748543,12.67637],[77.748543,12.67012],[77.748543,12.66387],[77.748543,12.65762],[77.748543,12.65137],[77.748543,12.64512],[77.748543,12.63887],[77.748543,12.633618],[77.743497,12.62975],[77.740185,12.627434],[77.736678,12.625415],[77.723811,12.618739],[77.719675,12.616844],[77.715367,12.615361],[77.710931,12.614305],[77.70641,12.613685],[77.701849,12.613509],[77.701684,12.613511],[77.696911,12.613803],[77.692195,12.614581],[77.687587,12.615835],[77.498541,12.677766],[77.498541,12.682619],[77.498541,12.688869],[77.498541,12.695119],[77.498541,12.701369],[77.498541,12.707619],[77.498541,12.713869],[77.498541,12.720119],[77.498541,12.726369],[77.498541,12.732619],[77.498541,12.738869],[77.498541,12.745119],[77.498541,12.751369],[77.504791,12.751369],[77.511041,12.751369]]]}},{"type":"Feature","properties":{"sheet":"soi-57g4-1973","title":"Survey of India 1:50,000 sheet 57 G/4 (Karnataka: Bangalore District), first metric edition, published 1973","year":1973,"edition":1975,"scale":50000,"url":"https://zenodo.org/records/8388121/files/57%20G%5D04%20Bangalore%20District%20%281973%29.jpg","showsAllWater":true,"minAreaM2":8000,"graticuleRmsM":7.7,"shiftToWgs84M":{"east":-120,"north":150},"correction":"translation","controlLakes":7,"offsetBeforeMedianM":203,"residualMedianM":38,"residualP90M":131,"source":"soi-57g4-1973"},"geometry":{"type":"Polygon","coordinates":[[[77.155064,13.251546],[77.161314,13.251546],[77.167564,13.251546],[77.173814,13.251546],[77.180065,13.251546],[77.186315,13.251546],[77.192565,13.251546],[77.198815,13.251546],[77.205065,13.251546],[77.211315,13.251546],[77.217565,13.251547],[77.223815,13.251547],[77.230065,13.251547],[77.236315,13.251547],[77.242565,13.251547],[77.248815,13.251547],[77.248815,13.245297],[77.248815,13.239047],[77.248815,13.232797],[77.248815,13.226547],[77.248815,13.220297],[77.248815,13.214047],[77.248815,13.207797],[77.248815,13.201547],[77.248815,13.195297],[77.248815,13.189047],[77.248815,13.182797],[77.248815,13.176547],[77.248815,13.170297],[77.248815,13.164047],[77.248815,13.157797],[77.248815,13.151547],[77.248815,13.145297],[77.248815,13.139047],[77.248815,13.132797],[77.248815,13.126547],[77.248816,13.120297],[77.248816,13.114047],[77.248816,13.107797],[77.248816,13.101547],[77.248816,13.095297],[77.248816,13.089047],[77.248816,13.082797],[77.248816,13.076546],[77.248816,13.070296],[77.248816,13.064046],[77.248816,13.057796],[77.248816,13.051546],[77.248816,13.045296],[77.248816,13.039046],[77.248816,13.032796],[77.248816,13.026546],[77.248816,13.020296],[77.248816,13.014046],[77.248816,13.007796],[77.248816,13.001546],[77.242566,13.001546],[77.236316,13.001546],[77.231629,13.001546],[77.171937,13.123513],[77.17142,13.124606],[77.138785,13.196065],[77.137193,13.200044],[77.135992,13.204152],[77.135193,13.208354],[77.134802,13.21261],[77.134823,13.216884],[77.135257,13.221137],[77.136099,13.22533],[77.137341,13.229427],[77.138974,13.23339],[77.147492,13.251546],[77.148814,13.251546],[77.155064,13.251546]]]}},{"type":"Feature","properties":{"sheet":"soi-57g7-1975","title":"Survey of India 1:50,000 sheet 57 G/7 (Karnataka: Bangalore District), first metric edition, published 1975","year":1975,"edition":1975,"scale":50000,"url":"https://zenodo.org/records/8388121/files/57%20G%5D07%20Bangalore%20District%20%281975%29.jpg","showsAllWater":true,"minAreaM2":8000,"graticuleRmsM":8.2,"shiftToWgs84M":{"east":-90,"north":130},"correction":"translation","controlLakes":11,"offsetBeforeMedianM":175,"residualMedianM":55,"residualP90M":105,"source":"soi-57g7-1975"},"geometry":{"type":"Polygon","coordinates":[[[77.348996,13.501184],[77.355246,13.501184],[77.361496,13.501184],[77.367746,13.501184],[77.373996,13.501184],[77.380246,13.501184],[77.386496,13.501184],[77.392746,13.501184],[77.398996,13.501184],[77.405246,13.501184],[77.411496,13.501184],[77.417746,13.501184],[77.423996,13.501184],[77.430246,13.501184],[77.436496,13.501184],[77.442746,13.501184],[77.448996,13.501184],[77.455247,13.501184],[77.461497,13.501184],[77.46665,13.501184],[77.498997,13.489294],[77.498997,13.488685],[77.498997,13.482434],[77.498997,13.476184],[77.498997,13.469934],[77.498997,13.463684],[77.498997,13.457434],[77.498997,13.451184],[77.498997,13.444934],[77.498997,13.438684],[77.498997,13.432434],[77.498997,13.426184],[77.498997,13.419934],[77.498997,13.413684],[77.498997,13.407434],[77.498997,13.401184],[77.498997,13.394934],[77.498997,13.388684],[77.498997,13.382434],[77.498997,13.376184],[77.498997,13.369934],[77.498997,13.363684],[77.498997,13.357434],[77.498997,13.351184],[77.498997,13.344934],[77.498997,13.338684],[77.498997,13.332434],[77.498997,13.326184],[77.498997,13.319934],[77.498997,13.313684],[77.498997,13.307434],[77.498997,13.301184],[77.498997,13.294934],[77.498997,13.288684],[77.498997,13.282434],[77.498997,13.276184],[77.498998,13.269934],[77.498998,13.263684],[77.498998,13.257434],[77.498998,13.251184],[77.492748,13.251184],[77.486497,13.251184],[77.480247,13.251184],[77.473997,13.251184],[77.467747,13.251184],[77.461497,13.251184],[77.455247,13.251184],[77.448997,13.251184],[77.442747,13.251184],[77.436497,13.251184],[77.430247,13.251184],[77.423997,13.251184],[77.417747,13.251184],[77.411497,13.251184],[77.405247,13.251184],[77.398997,13.251184],[77.392747,13.251184],[77.386497,13.251184],[77.380247,13.251184],[77.373997,13.251184],[77.367747,13.251184],[77.361497,13.251184],[77.355247,13.251184],[77.348997,13.251184],[77.342747,13.251184],[77.336497,13.251184],[77.330247,13.251184],[77.323997,13.251184],[77.317747,13.251184],[77.311497,13.251184],[77.305246,13.251184],[77.298996,13.251184],[77.292746,13.251184],[77.286496,13.251184],[77.280246,13.251184],[77.273996,13.251184],[77.267746,13.251184],[77.261496,13.251184],[77.255246,13.251184],[77.248996,13.251184],[77.248996,13.257434],[77.248996,13.263684],[77.248996,13.269934],[77.248996,13.276184],[77.248996,13.282434],[77.248996,13.288684],[77.248996,13.294934],[77.248996,13.301184],[77.248996,13.307434],[77.248996,13.313684],[77.248996,13.319934],[77.248996,13.326184],[77.248996,13.332434],[77.248996,13.338684],[77.248996,13.344934],[77.248996,13.351184],[77.248996,13.357434],[77.248996,13.363684],[77.248996,13.369934],[77.248996,13.376184],[77.248996,13.382434],[77.248996,13.388684],[77.248996,13.390597],[77.321507,13.483849],[77.325112,13.487948],[77.329191,13.491595],[77.341297,13.501184],[77.342746,13.501184],[77.348996,13.501184]]]}},{"type":"Feature","properties":{"sheet":"soi-57g8-1974","title":"Survey of India 1:50,000 sheet 57 G/8 (Karnataka: Bangalore District), first metric edition, published 1974","year":1974,"edition":1975,"scale":50000,"url":"https://zenodo.org/records/8388121/files/57%20G%5D08%20Bangalore%20District%20%281974%29.jpg","showsAllWater":true,"minAreaM2":8000,"graticuleRmsM":5.8,"shiftToWgs84M":{"east":-90,"north":140},"correction":"affine","controlLakes":80,"offsetBeforeMedianM":171,"residualMedianM":47,"residualP90M":99,"source":"soi-57g8-1974"},"geometry":{"type":"Polygon","coordinates":[[[77.261355,13.251164],[77.267612,13.251162],[77.273869,13.251161],[77.280126,13.251159],[77.286383,13.251157],[77.29264,13.251155],[77.298897,13.251153],[77.305154,13.251151],[77.311411,13.251149],[77.317668,13.251147],[77.323925,13.251145],[77.330182,13.251143],[77.336439,13.251141],[77.342696,13.251139],[77.348952,13.251137],[77.355209,13.251135],[77.361466,13.251133],[77.367723,13.251131],[77.37398,13.251129],[77.380237,13.251127],[77.386494,13.251125],[77.392751,13.251123],[77.399008,13.251121],[77.405265,13.251119],[77.411522,13.251117],[77.417779,13.251115],[77.424036,13.251113],[77.430293,13.251111],[77.43655,13.251109],[77.442807,13.251107],[77.449064,13.251105],[77.455321,13.251103],[77.461578,13.251101],[77.467835,13.251099],[77.474092,13.251097],[77.480349,13.251095],[77.486605,13.251093],[77.492862,13.251091],[77.499119,13.251089],[77.49913,13.244847],[77.499141,13.238605],[77.499152,13.232363],[77.499163,13.226122],[77.499175,13.21988],[77.499186,13.213638],[77.499197,13.207396],[77.499208,13.201154],[77.499219,13.194912],[77.49923,13.18867],[77.499241,13.182428],[77.499252,13.176186],[77.499263,13.169944],[77.499274,13.163702],[77.499285,13.157461],[77.499296,13.151219],[77.499307,13.144977],[77.499318,13.138735],[77.499329,13.132493],[77.49934,13.126251],[77.499351,13.120009],[77.499362,13.113767],[77.499373,13.107525],[77.499384,13.101283],[77.499395,13.095042],[77.499406,13.0888],[77.499417,13.082558],[77.499428,13.076316],[77.499439,13.070074],[77.49945,13.063832],[77.499461,13.05759],[77.499472,13.051348],[77.499483,13.045106],[77.499494,13.038864],[77.499505,13.032622],[77.499516,13.026381],[77.499527,13.020139],[77.499538,13.013897],[77.499549,13.007655],[77.49956,13.001413],[77.493303,13.001415],[77.487046,13.001417],[77.480789,13.001419],[77.474532,13.001421],[77.468276,13.001423],[77.462019,13.001425],[77.455762,13.001427],[77.449505,13.001429],[77.443248,13.001431],[77.436991,13.001433],[77.430734,13.001435],[77.424477,13.001437],[77.41822,13.001439],[77.411963,13.001441],[77.405706,13.001443],[77.399449,13.001445],[77.393192,13.001447],[77.386935,13.001449],[77.380678,13.001451],[77.374421,13.001453],[77.368164,13.001455],[77.361907,13.001457],[77.35565,13.001459],[77.349393,13.001461],[77.343136,13.001463],[77.336879,13.001465],[77.330622,13.001467],[77.324365,13.001469],[77.318108,13.001471],[77.311851,13.001473],[77.305594,13.001475],[77.299337,13.001477],[77.293081,13.001479],[77.286824,13.001481],[77.280567,13.001483],[77.27431,13.001485],[77.268053,13.001487],[77.261796,13.001489],[77.255539,13.001491],[77.249282,13.001493],[77.249271,13.007735],[77.24926,13.013976],[77.249249,13.020218],[77.249238,13.02646],[77.249227,13.032702],[77.249216,13.038944],[77.249205,13.045186],[77.249194,13.051428],[77.249183,13.05767],[77.249172,13.063912],[77.249161,13.070153],[77.24915,13.076395],[77.249139,13.082637],[77.249128,13.088879],[77.249117,13.095121],[77.249106,13.101363],[77.249095,13.107605],[77.249084,13.113847],[77.249073,13.120089],[77.249062,13.126331],[77.249051,13.132572],[77.249039,13.138814],[77.249028,13.145056],[77.249017,13.151298],[77.249006,13.15754],[77.248995,13.163782],[77.248984,13.170024],[77.248973,13.176266],[77.248962,13.182508],[77.248951,13.188749],[77.24894,13.194991],[77.248929,13.201233],[77.248918,13.207475],[77.248907,13.213717],[77.248896,13.219959],[77.248885,13.226201],[77.248874,13.232443],[77.248863,13.238685],[77.248852,13.244926],[77.248841,13.251168],[77.255098,13.251166],[77.261355,13.251164]]]}},{"type":"Feature","properties":{"sheet":"soi-57g11-1975","title":"Survey of India 1:50,000 sheet 57 G/11 (Karnataka: Kolar District), first metric edition, published 1975","year":1975,"edition":1975,"scale":50000,"url":"https://zenodo.org/records/8388121/files/57%20G%5D11%20Kolar%20District%20%281975%29.jpg","showsAllWater":true,"minAreaM2":8000,"graticuleRmsM":10.3,"shiftToWgs84M":{"east":-130,"north":160},"correction":"translation","controlLakes":53,"offsetBeforeMedianM":218,"residualMedianM":49,"residualP90M":84,"source":"soi-57g11-1975"},"geometry":{"type":"Polygon","coordinates":[[[77.748817,13.388958],[77.748817,13.382708],[77.748817,13.376458],[77.748817,13.370208],[77.748817,13.363958],[77.748817,13.357708],[77.748817,13.351458],[77.748817,13.345208],[77.748817,13.338958],[77.748817,13.332708],[77.748817,13.326458],[77.748817,13.320208],[77.748817,13.313958],[77.748817,13.307708],[77.748817,13.301458],[77.748817,13.295208],[77.748817,13.288958],[77.748817,13.282708],[77.748818,13.276458],[77.748818,13.270208],[77.748818,13.263958],[77.748818,13.257708],[77.748818,13.251458],[77.742568,13.251458],[77.736318,13.251458],[77.730067,13.251458],[77.723817,13.251458],[77.717567,13.251458],[77.711317,13.251458],[77.705067,13.251458],[77.698817,13.251458],[77.692567,13.251458],[77.686317,13.251458],[77.680067,13.251458],[77.673817,13.251458],[77.667567,13.251458],[77.661317,13.251458],[77.655067,13.251458],[77.648817,13.251458],[77.642567,13.251458],[77.636317,13.251458],[77.630067,13.251458],[77.623817,13.251458],[77.617567,13.251458],[77.611317,13.251458],[77.605067,13.251458],[77.598817,13.251458],[77.592567,13.251458],[77.586316,13.251457],[77.580066,13.251457],[77.573816,13.251457],[77.567566,13.251457],[77.561316,13.251457],[77.555066,13.251457],[77.548816,13.251457],[77.542566,13.251457],[77.536316,13.251457],[77.530066,13.251457],[77.523816,13.251457],[77.517566,13.251457],[77.511316,13.251457],[77.505066,13.251457],[77.498816,13.251457],[77.498816,13.257707],[77.498816,13.263957],[77.498816,13.270207],[77.498816,13.276457],[77.498816,13.282707],[77.498816,13.288957],[77.498816,13.295207],[77.498816,13.301457],[77.498816,13.307707],[77.498816,13.313957],[77.498816,13.320207],[77.498816,13.326457],[77.498816,13.332707],[77.498816,13.338957],[77.498816,13.345207],[77.498816,13.351457],[77.498815,13.357707],[77.498815,13.363957],[77.498815,13.370207],[77.498815,13.376457],[77.498815,13.382707],[77.498815,13.388957],[77.498815,13.395207],[77.498815,13.401457],[77.498815,13.407707],[77.498815,13.413957],[77.498815,13.420207],[77.498815,13.426457],[77.498815,13.432707],[77.498815,13.438957],[77.498815,13.445207],[77.498815,13.451457],[77.498815,13.457707],[77.498815,13.463957],[77.498815,13.470207],[77.498815,13.476457],[77.498815,13.482707],[77.498815,13.488957],[77.498815,13.489361],[77.748817,13.39729],[77.748817,13.395208],[77.748817,13.388958]]]}},{"type":"Feature","properties":{"sheet":"soi-57g12-1978","title":"Survey of India 1:50,000 sheet 57 G/12 (Karnataka: Bangalore District), first metric edition, published 1978","year":1978,"edition":1975,"scale":50000,"url":"https://zenodo.org/records/8388121/files/57%20G%5D12%20Bangalore%20District%20%281978%29.jpg","showsAllWater":true,"minAreaM2":8000,"graticuleRmsM":9.0,"shiftToWgs84M":{"east":-120,"north":130},"correction":"translation","controlLakes":72,"offsetBeforeMedianM":184,"residualMedianM":36,"residualP90M":69,"source":"soi-57g12-1978"},"geometry":{"type":"Polygon","coordinates":[[[77.511405,13.251185],[77.517655,13.251185],[77.523905,13.251185],[77.530156,13.251185],[77.536406,13.251185],[77.542656,13.251185],[77.548906,13.251185],[77.555156,13.251185],[77.561406,13.251185],[77.567656,13.251185],[77.573906,13.251186],[77.580156,13.251186],[77.586406,13.251186],[77.592656,13.251186],[77.598906,13.251186],[77.605156,13.251186],[77.611406,13.251186],[77.617656,13.251186],[77.623906,13.251186],[77.630156,13.251186],[77.636406,13.251186],[77.642656,13.251186],[77.648906,13.251186],[77.655156,13.251186],[77.661406,13.251186],[77.667656,13.251186],[77.673906,13.251186],[77.680156,13.251186],[77.686406,13.251186],[77.692656,13.251186],[77.698906,13.251186],[77.705157,13.251186],[77.711407,13.251186],[77.717657,13.251186],[77.723907,13.251186],[77.730157,13.251186],[77.736407,13.251186],[77.742657,13.251186],[77.748907,13.251186],[77.748907,13.244936],[77.748907,13.238686],[77.748907,13.232436],[77.748907,13.226186],[77.748907,13.219936],[77.748907,13.213686],[77.748907,13.207436],[77.748907,13.201186],[77.748907,13.194936],[77.748907,13.188686],[77.748907,13.182436],[77.748907,13.176186],[77.748907,13.169936],[77.748907,13.163686],[77.748907,13.157436],[77.748907,13.151186],[77.748907,13.144936],[77.748907,13.138686],[77.748907,13.132436],[77.748907,13.126186],[77.748907,13.119936],[77.748907,13.113686],[77.748907,13.107436],[77.748907,13.101186],[77.748907,13.094936],[77.748907,13.088686],[77.748907,13.082436],[77.748907,13.076186],[77.748907,13.069936],[77.748907,13.063686],[77.748907,13.057436],[77.748907,13.051186],[77.748907,13.044936],[77.748907,13.038686],[77.748908,13.032436],[77.748908,13.026186],[77.748908,13.019936],[77.748908,13.013686],[77.748908,13.007436],[77.748908,13.001186],[77.742658,13.001186],[77.736408,13.001186],[77.730158,13.001186],[77.723907,13.001186],[77.717657,13.001186],[77.711407,13.001186],[77.705157,13.001186],[77.698907,13.001186],[77.692657,13.001186],[77.686407,13.001186],[77.680157,13.001186],[77.673907,13.001186],[77.667657,13.001186],[77.661407,13.001186],[77.655157,13.001186],[77.648907,13.001186],[77.642657,13.001186],[77.636407,13.001186],[77.630157,13.001186],[77.623907,13.001185],[77.617657,13.001185],[77.611407,13.001185],[77.605157,13.001185],[77.598907,13.001185],[77.592657,13.001185],[77.586407,13.001185],[77.580157,13.001185],[77.573907,13.001185],[77.567657,13.001185],[77.561407,13.001185],[77.555157,13.001185],[77.548907,13.001185],[77.542656,13.001185],[77.536406,13.001185],[77.530156,13.001185],[77.523906,13.001185],[77.517656,13.001185],[77.511406,13.001185],[77.505156,13.001185],[77.498906,13.001185],[77.498906,13.007435],[77.498906,13.013685],[77.498906,13.019935],[77.498906,13.026185],[77.498906,13.032435],[77.498906,13.038685],[77.498906,13.044935],[77.498906,13.051185],[77.498906,13.057435],[77.498906,13.063685],[77.498906,13.069935],[77.498906,13.076185],[77.498906,13.082435],[77.498906,13.088685],[77.498906,13.094935],[77.498906,13.101185],[77.498906,13.107435],[77.498906,13.113685],[77.498906,13.119935],[77.498906,13.126185],[77.498906,13.132435],[77.498906,13.138685],[77.498906,13.144935],[77.498906,13.151185],[77.498906,13.157435],[77.498906,13.163685],[77.498906,13.169935],[77.498906,13.176185],[77.498906,13.182435],[77.498906,13.188685],[77.498906,13.194935],[77.498906,13.201185],[77.498906,13.207435],[77.498905,13.213685],[77.498905,13.219935],[77.498905,13.226185],[77.498905,13.232435],[77.498905,13.238685],[77.498905,13.244935],[77.498905,13.251185],[77.505155,13.251185],[77.511405,13.251185]]]}},{"type":"Feature","properties":{"sheet":"soi-57g16-1974","title":"Survey of India 1:50,000 sheet 57 G/16 (Karnataka: Bangalore District), first metric edition, published 1974","year":1974,"edition":1975,"scale":50000,"url":"https://zenodo.org/records/8388121/files/57%20G%5D16%20Bangalore%20District%20%281974%29.jpg","showsAllWater":true,"minAreaM2":8000,"graticuleRmsM":6.2,"shiftToWgs84M":{"east":-100,"north":130},"correction":"affine","controlLakes":78,"offsetBeforeMedianM":184,"residualMedianM":74,"residualP90M":151,"source":"soi-57g16-1974"},"geometry":{"type":"Polygon","coordinates":[[[77.761992,13.251118],[77.768234,13.251109],[77.774477,13.251099],[77.780719,13.251089],[77.786962,13.251079],[77.793204,13.251069],[77.799446,13.25106],[77.805689,13.25105],[77.811931,13.25104],[77.818174,13.25103],[77.824416,13.25102],[77.830659,13.251011],[77.836901,13.251001],[77.843144,13.250991],[77.849386,13.250981],[77.855628,13.250972],[77.861871,13.250962],[77.868113,13.250952],[77.874356,13.250942],[77.880598,13.250932],[77.886841,13.250923],[77.893083,13.250913],[77.899325,13.250903],[77.905568,13.250893],[77.91181,13.250883],[77.918053,13.250874],[77.924295,13.250864],[77.930538,13.250854],[77.93678,13.250844],[77.943022,13.250835],[77.949265,13.250825],[77.955507,13.250815],[77.96175,13.250805],[77.967992,13.250795],[77.974235,13.250786],[77.980477,13.250776],[77.98672,13.250766],[77.992962,13.250756],[77.999204,13.250747],[77.999188,13.244508],[77.999171,13.238269],[77.999154,13.23203],[77.999137,13.225791],[77.99912,13.219552],[77.999103,13.213313],[77.999086,13.207074],[77.999069,13.200836],[77.999052,13.194597],[77.999036,13.188358],[77.999019,13.182119],[77.999002,13.17588],[77.998985,13.169641],[77.998968,13.163402],[77.998951,13.157163],[77.998934,13.150925],[77.998917,13.144686],[77.9989,13.138447],[77.998884,13.132208],[77.998867,13.125969],[77.99885,13.11973],[77.998833,13.113491],[77.998816,13.107252],[77.998813,13.106014],[77.998028,13.102252],[77.99643,13.097431],[77.95837,13.001254],[77.954832,13.00126],[77.94859,13.00127],[77.942347,13.001279],[77.936105,13.001289],[77.929862,13.001299],[77.92362,13.001309],[77.917378,13.001319],[77.911135,13.001328],[77.904893,13.001338],[77.89865,13.001348],[77.892408,13.001358],[77.886165,13.001367],[77.879923,13.001377],[77.87368,13.001387],[77.867438,13.001397],[77.861195,13.001407],[77.854953,13.001416],[77.848711,13.001426],[77.842468,13.001436],[77.836226,13.001446],[77.829983,13.001455],[77.823741,13.001465],[77.817498,13.001475],[77.811256,13.001485],[77.805013,13.001495],[77.798771,13.001504],[77.792529,13.001514],[77.786286,13.001524],[77.780044,13.001534],[77.773801,13.001544],[77.767559,13.001553],[77.761316,13.001563],[77.755074,13.001573],[77.748831,13.001583],[77.748848,13.007822],[77.748865,13.01406],[77.748882,13.020299],[77.748899,13.026538],[77.748916,13.032777],[77.748933,13.039016],[77.74895,13.045255],[77.748966,13.051494],[77.748983,13.057733],[77.749,13.063971],[77.749017,13.07021],[77.749034,13.076449],[77.749051,13.082688],[77.749068,13.088927],[77.749085,13.095166],[77.749101,13.101405],[77.749118,13.107644],[77.749135,13.113883],[77.749152,13.120121],[77.749169,13.12636],[77.749186,13.132599],[77.749203,13.138838],[77.74922,13.145077],[77.749237,13.151316],[77.749254,13.157555],[77.74927,13.163794],[77.749287,13.170032],[77.749304,13.176271],[77.749321,13.18251],[77.749338,13.188749],[77.749355,13.194988],[77.749372,13.201227],[77.749389,13.207466],[77.749406,13.213705],[77.749422,13.219943],[77.749439,13.226182],[77.749456,13.232421],[77.749473,13.23866],[77.74949,13.244899],[77.749507,13.251138],[77.755749,13.251128],[77.761992,13.251118]]]}},{"type":"Feature","properties":{"sheet":"soi-57h5-1973","title":"Survey of India 1:50,000 sheet 57 H/5 (Karnataka: Bangalore District), first metric edition, published 1973","year":1973,"edition":1975,"scale":50000,"url":"https://zenodo.org/records/8388121/files/57%20H%5D05%20Bangalore%20District%20%281973%29.jpg","showsAllWater":true,"minAreaM2":8000,"graticuleRmsM":8.1,"shiftToWgs84M":{"east":-140,"north":110},"correction":"affine","controlLakes":24,"offsetBeforeMedianM":181,"residualMedianM":48,"residualP90M":121,"source":"soi-57h5-1973"},"geometry":{"type":"Polygon","coordinates":[[[77.261376,13.000939],[77.267625,13.000938],[77.273875,13.000937],[77.280124,13.000936],[77.286374,13.000935],[77.292623,13.000933],[77.298873,13.000932],[77.305122,13.000931],[77.311372,13.00093],[77.317621,13.000928],[77.323871,13.000927],[77.33012,13.000926],[77.33637,13.000925],[77.342619,13.000923],[77.348869,13.000922],[77.355118,13.000921],[77.361367,13.00092],[77.367617,13.000919],[77.373866,13.000917],[77.380116,13.000916],[77.386365,13.000915],[77.392615,13.000914],[77.398864,13.000912],[77.405114,13.000911],[77.411363,13.00091],[77.417613,13.000909],[77.423862,13.000908],[77.430112,13.000906],[77.436361,13.000905],[77.442611,13.000904],[77.44886,13.000903],[77.455109,13.000901],[77.461359,13.0009],[77.467608,13.000899],[77.473858,13.000898],[77.480107,13.000896],[77.486357,13.000895],[77.492606,13.000894],[77.498856,13.000893],[77.498851,12.994653],[77.498845,12.988412],[77.49884,12.982172],[77.498835,12.975932],[77.49883,12.969692],[77.498825,12.963452],[77.49882,12.957212],[77.498815,12.950971],[77.498809,12.944731],[77.498804,12.938491],[77.498799,12.932251],[77.498794,12.926011],[77.498789,12.919771],[77.498784,12.91353],[77.498779,12.90729],[77.498774,12.90105],[77.498768,12.89481],[77.498763,12.88857],[77.498758,12.88233],[77.498753,12.876089],[77.498748,12.869849],[77.498743,12.863609],[77.498738,12.857369],[77.498733,12.851129],[77.498727,12.844889],[77.498722,12.838648],[77.498717,12.832408],[77.498712,12.826168],[77.498707,12.819928],[77.498702,12.813688],[77.498697,12.807448],[77.498691,12.801207],[77.498686,12.794967],[77.498681,12.788727],[77.498676,12.782487],[77.498671,12.776247],[77.498666,12.770007],[77.498661,12.763766],[77.498656,12.757526],[77.49865,12.751286],[77.492401,12.751287],[77.486151,12.751288],[77.479902,12.75129],[77.473653,12.751291],[77.467403,12.751292],[77.461154,12.751293],[77.454904,12.751295],[77.448655,12.751296],[77.442405,12.751297],[77.436156,12.751298],[77.429906,12.7513],[77.423657,12.751301],[77.417407,12.751302],[77.411158,12.751303],[77.404908,12.751304],[77.399461,12.751305],[77.317884,12.8311],[77.314403,12.834913],[77.311383,12.839089],[77.308865,12.843572],[77.248849,12.966342],[77.248851,12.969741],[77.248857,12.975981],[77.248862,12.982221],[77.248867,12.988462],[77.248872,12.994702],[77.248877,13.000942],[77.255127,13.000941],[77.261376,13.000939]]]}},{"type":"Feature","properties":{"sheet":"soi-57h6-1973","title":"Survey of India 1:50,000 sheet 57 H/6 (Karnataka: Bangalore District), first metric edition, published 1973","year":1973,"edition":1975,"scale":50000,"url":"https://zenodo.org/records/8388121/files/57%20H%5D06%20Bangalore%20District%20%281973%29.jpg","showsAllWater":true,"minAreaM2":8000,"graticuleRmsM":9.1,"shiftToWgs84M":{"east":-110,"north":140},"correction":"affine","controlLakes":13,"offsetBeforeMedianM":174,"residualMedianM":41,"residualP90M":98,"source":"soi-57h6-1973"},"geometry":{"type":"Polygon","coordinates":[[[77.411448,12.751458],[77.417687,12.751436],[77.423925,12.751413],[77.430164,12.751391],[77.436403,12.751369],[77.442642,12.751346],[77.44888,12.751324],[77.455119,12.751302],[77.461358,12.751279],[77.467596,12.751257],[77.473835,12.751235],[77.480074,12.751212],[77.486312,12.75119],[77.492551,12.751168],[77.49879,12.751145],[77.498817,12.744901],[77.498843,12.738657],[77.49887,12.732413],[77.498897,12.726169],[77.498924,12.719925],[77.498951,12.713681],[77.498977,12.707437],[77.499004,12.701193],[77.499031,12.694948],[77.499058,12.688704],[77.499085,12.68246],[77.499105,12.677582],[77.472843,12.686173],[77.468873,12.687675],[77.465061,12.689531],[77.46144,12.691724],[77.458041,12.694237],[77.454892,12.697047],[77.399261,12.751502],[77.405209,12.75148],[77.411448,12.751458]]]}},{"type":"Feature","properties":{"sheet":"soi-57h9-1980","title":"Survey of India 1:50,000 sheet 57 H/9 (Karnataka: Bangalore District), first metric edition, published 1980","year":1980,"edition":1975,"scale":50000,"url":"https://zenodo.org/records/8388121/files/57%20H%5D09%20Bangalore%20District%20%281980%29.jpg","showsAllWater":true,"minAreaM2":8000,"graticuleRmsM":5.4,"shiftToWgs84M":{"east":-110,"north":130},"correction":"translation","controlLakes":94,"offsetBeforeMedianM":178,"residualMedianM":32,"residualP90M":76,"source":"soi-57h9-1980"},"geometry":{"type":"Polygon","coordinates":[[[77.511499,13.001275],[77.517749,13.001275],[77.523999,13.001275],[77.530249,13.001275],[77.536499,13.001275],[77.54275,13.001275],[77.549,13.001275],[77.55525,13.001275],[77.5615,13.001275],[77.56775,13.001275],[77.574,13.001275],[77.58025,13.001275],[77.5865,13.001275],[77.59275,13.001275],[77.599,13.001275],[77.60525,13.001275],[77.6115,13.001275],[77.61775,13.001275],[77.624,13.001275],[77.63025,13.001275],[77.6365,13.001275],[77.64275,13.001275],[77.649,13.001275],[77.65525,13.001275],[77.6615,13.001275],[77.66775,13.001275],[77.674,13.001275],[77.68025,13.001275],[77.6865,13.001275],[77.69275,13.001275],[77.699,13.001275],[77.70525,13.001275],[77.711501,13.001275],[77.717751,13.001275],[77.724001,13.001275],[77.730251,13.001275],[77.736501,13.001275],[77.742751,13.001275],[77.749001,13.001275],[77.749001,12.995025],[77.749001,12.988775],[77.749001,12.982525],[77.749001,12.976275],[77.749001,12.970025],[77.749001,12.963775],[77.749001,12.957525],[77.749001,12.951275],[77.749001,12.945025],[77.749001,12.938775],[77.749001,12.932525],[77.749001,12.926275],[77.749001,12.920025],[77.749001,12.913775],[77.749001,12.907525],[77.749001,12.901275],[77.749001,12.895025],[77.749001,12.888775],[77.749001,12.882525],[77.749001,12.876275],[77.749001,12.870025],[77.749001,12.863775],[77.749001,12.857525],[77.749001,12.851275],[77.749001,12.845025],[77.749001,12.838775],[77.749001,12.832525],[77.749001,12.826275],[77.749001,12.820025],[77.749001,12.813775],[77.749001,12.807525],[77.749001,12.801275],[77.749001,12.795025],[77.749001,12.788775],[77.749001,12.782525],[77.749001,12.776275],[77.749001,12.770025],[77.749001,12.763775],[77.749001,12.757525],[77.749001,12.751275],[77.742751,12.751275],[77.736501,12.751275],[77.730251,12.751275],[77.724001,12.751275],[77.717751,12.751275],[77.711501,12.751275],[77.705251,12.751275],[77.699001,12.751275],[77.692751,12.751275],[77.686501,12.751275],[77.680251,12.751275],[77.674001,12.751275],[77.667751,12.751275],[77.661501,12.751275],[77.655251,12.751275],[77.649001,12.751275],[77.642751,12.751275],[77.636501,12.751275],[77.630251,12.751275],[77.624001,12.751275],[77.617751,12.751275],[77.611501,12.751275],[77.605251,12.751275],[77.599001,12.751275],[77.592751,12.751275],[77.586501,12.751275],[77.58025,12.751275],[77.574,12.751275],[77.56775,12.751275],[77.5615,12.751275],[77.55525,12.751275],[77.549,12.751275],[77.54275,12.751274],[77.5365,12.751274],[77.53025,12.751274],[77.524,12.751274],[77.51775,12.751274],[77.5115,12.751274],[77.50525,12.751274],[77.499,12.751274],[77.499,12.757524],[77.499,12.763774],[77.499,12.770024],[77.499,12.776274],[77.499,12.782524],[77.499,12.788774],[77.499,12.795024],[77.499,12.801274],[77.499,12.807524],[77.499,12.813774],[77.499,12.820024],[77.499,12.826274],[77.499,12.832524],[77.499,12.838774],[77.499,12.845024],[77.499,12.851274],[77.499,12.857524],[77.499,12.863774],[77.499,12.870024],[77.499,12.876274],[77.499,12.882524],[77.499,12.888774],[77.499,12.895024],[77.499,12.901274],[77.499,12.907524],[77.499,12.913774],[77.499,12.920024],[77.498999,12.926274],[77.498999,12.932524],[77.498999,12.938774],[77.498999,12.945024],[77.498999,12.951274],[77.498999,12.957524],[77.498999,12.963775],[77.498999,12.970025],[77.498999,12.976275],[77.498999,12.982525],[77.498999,12.988775],[77.498999,12.995025],[77.498999,13.001275],[77.505249,13.001275],[77.511499,13.001275]]]}},{"type":"Feature","properties":{"sheet":"soi-57h10-1973","title":"Survey of India 1:50,000 sheet 57 H/10 (Karnataka: Bangalore District), first metric edition, published 1973","year":1973,"edition":1975,"scale":50000,"url":"https://zenodo.org/records/8388121/files/57%20H%5D10%20Bangalore%20District%20%281973%29.jpg","showsAllWater":true,"minAreaM2":8000,"graticuleRmsM":6.9,"shiftToWgs84M":{"east":-130,"north":130},"correction":"affine","controlLakes":17,"offsetBeforeMedianM":175,"residualMedianM":52,"residualP90M":155,"source":"soi-57h10-1973"},"geometry":{"type":"Polygon","coordinates":[[[77.511415,12.750534],[77.517661,12.750569],[77.523907,12.750603],[77.530154,12.750638],[77.5364,12.750672],[77.542646,12.750707],[77.548893,12.750742],[77.555139,12.750776],[77.561386,12.750811],[77.567632,12.750846],[77.573878,12.75088],[77.580125,12.750915],[77.586371,12.75095],[77.592617,12.750984],[77.598864,12.751019],[77.60511,12.751053],[77.611357,12.751088],[77.617603,12.751123],[77.623849,12.751157],[77.630096,12.751192],[77.636342,12.751227],[77.642589,12.751261],[77.648835,12.751296],[77.655081,12.751331],[77.661328,12.751365],[77.667574,12.7514],[77.673821,12.751435],[77.680067,12.751469],[77.686313,12.751504],[77.69256,12.751539],[77.698806,12.751573],[77.705053,12.751608],[77.711299,12.751643],[77.717545,12.751677],[77.723792,12.751712],[77.730038,12.751746],[77.736285,12.751781],[77.742531,12.751816],[77.748778,12.75185],[77.748791,12.745557],[77.748805,12.739263],[77.748819,12.73297],[77.748833,12.726676],[77.748847,12.720382],[77.748861,12.714089],[77.748874,12.707795],[77.748888,12.701502],[77.748902,12.695208],[77.748916,12.688914],[77.74893,12.682621],[77.748944,12.676327],[77.748957,12.670034],[77.748971,12.66374],[77.748985,12.657446],[77.748999,12.651153],[77.749013,12.644859],[77.749027,12.638566],[77.749037,12.633997],[77.743497,12.62975],[77.740185,12.627434],[77.736678,12.625415],[77.723811,12.618739],[77.719675,12.616844],[77.715367,12.615361],[77.710931,12.614305],[77.70641,12.613685],[77.701849,12.613509],[77.701684,12.613511],[77.696911,12.613803],[77.692195,12.614581],[77.687587,12.615835],[77.499083,12.677589],[77.499075,12.681235],[77.499061,12.687528],[77.499047,12.693822],[77.499033,12.700116],[77.499019,12.706409],[77.499005,12.712703],[77.498991,12.718997],[77.498977,12.72529],[77.498963,12.731584],[77.49895,12.737877],[77.498936,12.744171],[77.498922,12.750465],[77.505168,12.750499],[77.511415,12.750534]]]}},{"type":"Feature","properties":{"sheet":"soi-57h13-1973","title":"Survey of India 1:50,000 sheet 57 H/13 (Karnataka: Kolar District), first metric edition, published 1973","year":1973,"edition":1975,"scale":50000,"url":"https://zenodo.org/records/8388121/files/57%20H%5D13%20Kolar%20District%20%281973%29.jpg","showsAllWater":true,"minAreaM2":8000,"graticuleRmsM":5.6,"shiftToWgs84M":{"east":-100,"north":160},"correction":"translation","controlLakes":47,"offsetBeforeMedianM":191,"residualMedianM":57,"residualP90M":110,"source":"soi-57h13-1973"},"geometry":{"type":"Polygon","coordinates":[[[77.761502,13.001366],[77.767752,13.001366],[77.774002,13.001366],[77.780252,13.001366],[77.786502,13.001366],[77.792752,13.001366],[77.799002,13.001366],[77.805252,13.001366],[77.811502,13.001366],[77.817752,13.001366],[77.824002,13.001366],[77.830252,13.001366],[77.836502,13.001366],[77.842752,13.001366],[77.849002,13.001366],[77.855252,13.001366],[77.861502,13.001366],[77.867752,13.001366],[77.874003,13.001366],[77.880253,13.001366],[77.886503,13.001366],[77.892753,13.001366],[77.899003,13.001366],[77.905253,13.001366],[77.911503,13.001366],[77.917753,13.001366],[77.924003,13.001366],[77.930253,13.001366],[77.936503,13.001366],[77.942753,13.001366],[77.949003,13.001366],[77.955253,13.001366],[77.958414,13.001366],[77.899584,12.8525],[77.899205,12.851571],[77.89901,12.851107],[77.896058,12.845312],[77.839301,12.751366],[77.836503,12.751366],[77.830253,12.751366],[77.824003,12.751366],[77.817753,12.751366],[77.811503,12.751366],[77.805253,12.751366],[77.799003,12.751366],[77.792753,12.751366],[77.786503,12.751365],[77.780253,12.751365],[77.774003,12.751365],[77.767753,12.751365],[77.761503,12.751365],[77.755252,12.751365],[77.749002,12.751365],[77.749002,12.757615],[77.749002,12.763865],[77.749002,12.770115],[77.749002,12.776365],[77.749002,12.782615],[77.749002,12.788865],[77.749002,12.795115],[77.749002,12.801365],[77.749002,12.807615],[77.749002,12.813865],[77.749002,12.820115],[77.749002,12.826365],[77.749002,12.832615],[77.749002,12.838865],[77.749002,12.845115],[77.749002,12.851365],[77.749002,12.857615],[77.749002,12.863865],[77.749002,12.870115],[77.749002,12.876365],[77.749002,12.882615],[77.749002,12.888865],[77.749002,12.895115],[77.749002,12.901365],[77.749002,12.907616],[77.749002,12.913866],[77.749002,12.920116],[77.749002,12.926366],[77.749002,12.932616],[77.749002,12.938866],[77.749002,12.945116],[77.749002,12.951366],[77.749002,12.957616],[77.749002,12.963866],[77.749002,12.970116],[77.749002,12.976366],[77.749002,12.982616],[77.749002,12.988866],[77.749002,12.995116],[77.749002,13.001366],[77.755252,13.001366],[77.761502,13.001366]]]}}]}
