{"type":"FeatureCollection","features":[{"type":"Feature","properties":{"name":"Greater Bengaluru","source":"wards-gba-2025-369"},"geometry":{"type":"Polygon","coordinates":[[[77.544852,12.847599],[77.544358,12.84699],[77.544576,12.846312],[77.544314,12.844369],[77.542775,12.843371],[77.541677,12.843325],[77.541265,12.844273],[77.540492,12.844962],[77.538348,12.845304],[77.537575,12.841737],[77.535108,12.840954],[77.533434,12.839702],[77.526057,12.840642],[77.523518,12.839945],[77.521591,12.848998],[77.51921,12.854856],[77.518409,12.861167],[77.519542,12.86215],[77.52022,12.866343],[77.523087,12.870579],[77.520205,12.872149],[77.519437,12.87179],[77.515493,12.867877],[77.512413,12.868274],[77.511592,12.868062],[77.510115,12.869031],[77.509245,12.87002],[77.506675,12.873808],[77.505416,12.87659],[77.504547,12.877009],[77.502689,12.876188],[77.497026,12.872376],[77.496273,12.87295],[77.495092,12.872956],[77.494554,12.871722],[77.492522,12.872195],[77.491781,12.87082],[77.488364,12.872403],[77.488422,12.871983],[77.485991,12.871363],[77.484735,12.871646],[77.483121,12.874375],[77.482563,12.874149],[77.480877,12.874285],[77.481686,12.878097],[77.479411,12.87781],[77.475669,12.878379],[77.474824,12.880048],[77.475158,12.88095],[77.478902,12.88445],[77.478767,12.88612],[77.482495,12.885752],[77.482967,12.886292],[77.481842,12.889556],[77.481053,12.890145],[77.479307,12.88979],[77.47907,12.892172],[77.477832,12.893024],[77.476737,12.894471],[77.475522,12.894344],[77.475727,12.895241],[77.477268,12.896414],[77.474516,12.898094],[77.47344,12.89843],[77.470115,12.893992],[77.469421,12.892455],[77.468489,12.888316],[77.460965,12.898419],[77.460224,12.898212],[77.45988,12.904693],[77.460079,12.906631],[77.463718,12.906483],[77.466672,12.906878],[77.466499,12.910147],[77.47008,12.915192],[77.473388,12.926639],[77.475887,12.926696],[77.479595,12.925917],[77.479733,12.926399],[77.479119,12.927227],[77.480263,12.927641],[77.480987,12.927406],[77.481917,12.928913],[77.482316,12.928955],[77.483201,12.930603],[77.482895,12.931261],[77.483345,12.931381],[77.483134,12.93239],[77.483612,12.933919],[77.483895,12.933889],[77.484244,12.936921],[77.478357,12.937562],[77.476273,12.938309],[77.476403,12.938629],[77.474736,12.939915],[77.473252,12.940334],[77.474745,12.943422],[77.47507,12.945469],[77.476279,12.948823],[77.471059,12.949586],[77.471122,12.950725],[77.472142,12.950869],[77.472512,12.951601],[77.471549,12.952236],[77.471995,12.955043],[77.475041,12.960446],[77.473666,12.962009],[77.473187,12.963395],[77.473495,12.967308],[77.475006,12.970107],[77.474837,12.975671],[77.473793,12.982224],[77.473278,12.98366],[77.472259,12.984847],[77.469803,12.9863],[77.468446,12.986697],[77.470363,12.990654],[77.47133,12.993857],[77.471253,12.994604],[77.47245,12.996806],[77.472882,12.996726],[77.473567,12.998871],[77.474202,12.999219],[77.475266,13.002557],[77.47542,13.003393],[77.475194,13.003426],[77.474999,13.004865],[77.475398,13.006447],[77.472857,13.007411],[77.4731,13.008835],[77.473443,13.008762],[77.473989,13.009652],[77.475259,13.013146],[77.477005,13.014841],[77.477408,13.017151],[77.478278,13.018972],[77.478835,13.022126],[77.47834,13.022285],[77.478615,13.026347],[77.479535,13.029161],[77.476873,13.031522],[77.478677,13.035044],[77.479913,13.035642],[77.480097,13.037928],[77.480855,13.038402],[77.48134,13.039709],[77.482107,13.040017],[77.482557,13.040752],[77.481679,13.041764],[77.481262,13.042876],[77.480306,13.043372],[77.479624,13.044763],[77.480059,13.048638],[77.480241,13.048985],[77.481156,13.048279],[77.482139,13.048413],[77.48756,13.046124],[77.490973,13.045103],[77.49199,13.04822],[77.492583,13.051512],[77.492334,13.054738],[77.490956,13.056958],[77.492728,13.062088],[77.493034,13.062141],[77.492628,13.066735],[77.492973,13.073529],[77.498344,13.073292],[77.499505,13.07198],[77.501433,13.072845],[77.502707,13.074655],[77.504108,13.075394],[77.504796,13.076477],[77.507177,13.078007],[77.508385,13.077613],[77.508817,13.077852],[77.509413,13.076995],[77.511132,13.075724],[77.514288,13.075158],[77.514442,13.075356],[77.517957,13.074181],[77.51898,13.079665],[77.520883,13.079151],[77.521281,13.080405],[77.522067,13.080352],[77.523202,13.080873],[77.523586,13.082875],[77.523448,13.088114],[77.523779,13.093068],[77.534394,13.092137],[77.535452,13.090174],[77.540714,13.089973],[77.540724,13.091776],[77.542124,13.094018],[77.542386,13.095597],[77.544429,13.100788],[77.544229,13.101319],[77.550721,13.100952],[77.556024,13.100144],[77.558213,13.102951],[77.560471,13.107251],[77.560995,13.108774],[77.560047,13.10931],[77.560313,13.111151],[77.559675,13.112111],[77.561062,13.113775],[77.561591,13.113824],[77.562554,13.116548],[77.563193,13.120502],[77.565557,13.125963],[77.569663,13.125022],[77.571911,13.135973],[77.572733,13.136294],[77.573418,13.136044],[77.573867,13.13772],[77.57389,13.141141],[77.574364,13.141286],[77.574308,13.141519],[77.579911,13.14262],[77.582481,13.14003],[77.583793,13.135219],[77.58485,13.133103],[77.58534,13.132689],[77.585859,13.132599],[77.585691,13.133299],[77.589104,13.133304],[77.596567,13.132929],[77.599619,13.132032],[77.601839,13.134307],[77.604284,13.13426],[77.612435,13.133006],[77.615531,13.131168],[77.618403,13.131601],[77.62587,13.127462],[77.630603,13.125944],[77.638616,13.113423],[77.637033,13.107403],[77.637021,13.106269],[77.642238,13.105486],[77.643854,13.105735],[77.65032,13.104656],[77.64735,13.096454],[77.642697,13.086886],[77.646524,13.086276],[77.646603,13.085152],[77.649586,13.081363],[77.654721,13.081993],[77.656491,13.074613],[77.657823,13.07297],[77.659661,13.068211],[77.660088,13.06788],[77.667016,13.065905],[77.667323,13.063842],[77.670027,13.065782],[77.672406,13.065646],[77.675354,13.064946],[77.677188,13.065031],[77.676676,13.063884],[77.67667,13.062882],[77.679133,13.062871],[77.679607,13.06197],[77.679268,13.060536],[77.679467,13.058527],[77.678885,13.058029],[77.678994,13.05752],[77.679228,13.057577],[77.67949,13.055676],[77.678924,13.054998],[77.678396,13.052439],[77.67981,13.052485],[77.683614,13.049963],[77.683967,13.050107],[77.685051,13.045109],[77.68363,13.033239],[77.686466,13.033548],[77.690915,13.03249],[77.69438,13.026739],[77.701684,13.027437],[77.701186,13.024946],[77.703396,13.025808],[77.705921,13.026187],[77.709153,13.025299],[77.710656,13.025939],[77.711955,13.028185],[77.714963,13.031946],[77.717337,13.031575],[77.717416,13.032897],[77.721446,13.034113],[77.723905,13.033571],[77.724193,13.03257],[77.724846,13.032411],[77.724683,13.030089],[77.725153,13.025928],[77.725663,13.02594],[77.7295,13.020201],[77.730095,13.019815],[77.729769,13.017592],[77.72866,13.014449],[77.728082,13.010545],[77.732441,13.010801],[77.733958,13.010195],[77.735588,13.010913],[77.736232,13.010762],[77.736147,13.007615],[77.736602,13.007878],[77.738143,13.007577],[77.740878,13.008125],[77.741105,13.007144],[77.745154,13.007171],[77.747085,13.006819],[77.746881,13.007848],[77.74695,13.009568],[77.747198,13.00984],[77.746893,13.010476],[77.747217,13.011663],[77.747796,13.011498],[77.747881,13.012731],[77.749214,13.01204],[77.749836,13.011348],[77.750869,13.011375],[77.752437,13.010712],[77.754742,13.008839],[77.75531,13.010239],[77.756014,13.010072],[77.757365,13.008828],[77.75957,13.007467],[77.759384,13.006098],[77.760207,13.005255],[77.760783,13.004952],[77.762106,13.005032],[77.763427,13.002911],[77.763342,13.002604],[77.764062,13.003128],[77.764121,13.004074],[77.768583,13.002653],[77.76936,13.004537],[77.769772,13.009369],[77.771462,13.015048],[77.771719,13.015238],[77.772847,13.014859],[77.774144,13.01316],[77.773901,13.010799],[77.773214,13.009553],[77.773354,13.006398],[77.773568,13.00617],[77.774359,13.00636],[77.775836,13.005755],[77.77557,13.003553],[77.774781,13.002969],[77.772739,13.00297],[77.772559,13.002527],[77.773652,13.00177],[77.7738,13.001274],[77.774748,13.001116],[77.774951,12.998178],[77.774454,12.997915],[77.774656,12.995758],[77.774161,12.993909],[77.774407,12.993719],[77.774118,12.991886],[77.775073,12.99195],[77.775606,12.99151],[77.775543,12.990287],[77.776152,12.988261],[77.775866,12.986448],[77.776159,12.985778],[77.776913,12.985195],[77.776043,12.982722],[77.775374,12.98208],[77.774668,12.980459],[77.775835,12.979896],[77.77703,12.978489],[77.778149,12.978429],[77.778376,12.977963],[77.778531,12.977232],[77.778278,12.976495],[77.776658,12.976189],[77.776202,12.975137],[77.777093,12.973779],[77.778796,12.972814],[77.778981,12.972172],[77.778628,12.970577],[77.780346,12.969931],[77.781164,12.970719],[77.783203,12.970901],[77.784064,12.96673],[77.782124,12.966166],[77.780645,12.96709],[77.778791,12.966807],[77.778845,12.967654],[77.777629,12.968157],[77.777429,12.968092],[77.777417,12.967823],[77.776346,12.967554],[77.775068,12.966688],[77.773635,12.966111],[77.772086,12.965932],[77.770766,12.964221],[77.770657,12.962879],[77.770374,12.962917],[77.769952,12.961898],[77.768391,12.961229],[77.768145,12.960468],[77.767496,12.960213],[77.767204,12.959527],[77.7667,12.959319],[77.764955,12.95993],[77.764387,12.957402],[77.76455,12.952212],[77.764985,12.951171],[77.765588,12.946555],[77.765135,12.942389],[77.765532,12.939977],[77.765503,12.93705],[77.766413,12.934964],[77.765764,12.933332],[77.765498,12.931258],[77.76463,12.928873],[77.764835,12.928783],[77.762353,12.928379],[77.756521,12.926255],[77.752272,12.925299],[77.751339,12.922011],[77.745786,12.919774],[77.744669,12.913633],[77.738019,12.914818],[77.737423,12.914686],[77.737396,12.913492],[77.734447,12.913197],[77.734365,12.914035],[77.732454,12.914214],[77.732071,12.913906],[77.727783,12.914499],[77.727612,12.910887],[77.726275,12.906568],[77.721312,12.907847],[77.720792,12.908154],[77.720796,12.908823],[77.719778,12.908655],[77.719705,12.907986],[77.717856,12.908374],[77.717913,12.908872],[77.71764,12.908966],[77.716122,12.907387],[77.714228,12.908083],[77.7113,12.907863],[77.708354,12.908063],[77.706871,12.902026],[77.702847,12.904041],[77.702396,12.903576],[77.697853,12.904545],[77.697659,12.90418],[77.696261,12.903994],[77.693394,12.904489],[77.691568,12.903998],[77.690925,12.905525],[77.688363,12.905485],[77.688221,12.906084],[77.687752,12.906442],[77.686848,12.906449],[77.687311,12.904728],[77.685717,12.904438],[77.687582,12.903338],[77.68747,12.902561],[77.682545,12.901414],[77.682277,12.899959],[77.679592,12.897598],[77.677354,12.89426],[77.673773,12.89314],[77.672328,12.88465],[77.674184,12.884126],[77.673968,12.879849],[77.671382,12.880272],[77.673646,12.877242],[77.674681,12.875259],[77.675325,12.872579],[77.672812,12.869307],[77.672893,12.868252],[77.666719,12.866212],[77.664576,12.862428],[77.664129,12.862528],[77.663718,12.860783],[77.662366,12.859591],[77.661281,12.858675],[77.6574,12.858553],[77.657454,12.857826],[77.65685,12.857206],[77.656135,12.8571],[77.6559,12.856112],[77.655411,12.855828],[77.655277,12.856214],[77.653134,12.855654],[77.652818,12.854979],[77.651721,12.854923],[77.650688,12.853953],[77.649871,12.853629],[77.650073,12.85215],[77.649655,12.852106],[77.649563,12.85307],[77.648627,12.852673],[77.648519,12.851898],[77.647576,12.852243],[77.64519,12.851639],[77.645217,12.852069],[77.643091,12.850576],[77.642808,12.852687],[77.642904,12.859449],[77.641875,12.863593],[77.641206,12.865008],[77.639069,12.864998],[77.638486,12.863461],[77.637288,12.862899],[77.635203,12.863049],[77.634072,12.862261],[77.634389,12.861844],[77.631395,12.860611],[77.630723,12.860017],[77.630277,12.858408],[77.629224,12.857123],[77.621118,12.85794],[77.619184,12.857956],[77.618906,12.857596],[77.618057,12.857431],[77.616839,12.857534],[77.616494,12.855714],[77.614359,12.854215],[77.612745,12.85175],[77.6091,12.851268],[77.609221,12.846066],[77.607084,12.847472],[77.604473,12.848173],[77.602672,12.848398],[77.600187,12.847912],[77.598157,12.848233],[77.595609,12.849191],[77.59431,12.845464],[77.593987,12.84036],[77.59153,12.834584],[77.590628,12.834965],[77.590563,12.835589],[77.589666,12.835474],[77.587016,12.833491],[77.582012,12.836453],[77.582089,12.836895],[77.581658,12.837283],[77.579041,12.838263],[77.575231,12.83872],[77.574787,12.837492],[77.574328,12.837339],[77.571874,12.839196],[77.565594,12.839667],[77.562557,12.83897],[77.562676,12.840275],[77.56036,12.841209],[77.557406,12.841844],[77.557347,12.84419],[77.556429,12.845072],[77.554879,12.847849],[77.554491,12.848027],[77.553232,12.847732],[77.553021,12.847157],[77.551494,12.848005],[77.544852,12.847599]]]}}]}