{"type":"FeatureCollection","features":[{"type":"Feature","properties":{},"geometry":{"type":"Polygon","coordinates":[[[-180.0,-85.0],[-180.0,85.0],[180.0,85.0],[180.0,-85.0],[-180.0,-85.0]],[[77.837838,12.8691283],[77.8468189,12.8689045],[77.850219,12.8659115],[77.8547253,12.8666729],[77.8573515,12.8688769],[77.8676518,12.8680687],[77.8673937,12.8719917],[77.866426,12.8761],[77.8556831,12.8762484],[77.8545263,12.8817849],[77.8547518,12.8841849],[77.8536967,12.88517],[77.8538715,12.8879993],[77.8522772,12.8909098],[77.8587074,12.9042569],[77.8616048,12.9120354],[77.8618949,12.9142682],[77.8568128,12.9164869],[77.8535278,12.9153748],[77.8492382,12.9154285],[77.8445661,12.91635],[77.842189,12.9140356],[77.8400228,12.9187492],[77.8395615,12.9221841],[77.8410309,12.9248283],[77.8457075,12.9262391],[77.8473616,12.926289],[77.8510194,12.9320836],[77.8542863,12.9324726],[77.859184,12.9356729],[77.8691831,12.9338205],[77.8707404,12.9371425],[77.8737123,12.945192],[77.8699935,12.94728],[77.8671133,12.9509272],[77.8696891,12.9543486],[77.8715599,12.95984],[77.8652969,12.9661446],[77.8654719,12.9682915],[77.8646973,12.9736472],[77.8714212,12.9729017],[77.872306,12.975148],[77.8716423,12.9754598],[77.8716239,12.9763366],[77.8707943,12.9765626],[77.8709187,12.9777513],[77.8717482,12.978827],[77.8719371,12.9814483],[77.8718034,12.983672],[77.8711074,12.9840426],[77.8709691,12.9851182],[77.8737159,12.9870753],[77.8728677,12.9945372],[77.8740613,12.9976467],[77.8771226,13.0012473],[77.87938,13.005176],[77.8858651,13.0085702],[77.8875385,13.0172432],[77.8867596,13.0199641],[77.8898849,13.0237514],[77.8932965,13.0350321],[77.8871566,13.0370798],[77.8888117,13.0454319],[77.8930943,13.0462407],[77.8930298,13.047095],[77.8914302,13.0470996],[77.8913612,13.0493006],[77.8919789,13.0493458],[77.8922234,13.0521976],[77.892772,13.0522428],[77.8938969,13.053802],[77.8949617,13.0530155],[77.8951646,13.0534765],[77.8982117,13.0521927],[77.8988201,13.0509769],[77.9053153,13.0489697],[77.905426,13.0493628],[77.9136592,13.0484489],[77.9152868,13.0508441],[77.9189748,13.0508978],[77.9192472,13.0536366],[77.9199805,13.0553404],[77.921608,13.0565333],[77.9216319,13.0611433],[77.9230057,13.0613645],[77.9247717,13.0631856],[77.9254176,13.0657391],[77.9282027,13.0684458],[77.937372,13.0659717],[77.9414527,13.068791],[77.9415469,13.076768],[77.9409162,13.0804064],[77.9395523,13.0835523],[77.9387488,13.0786307],[77.9362265,13.0766969],[77.9360234,13.0755716],[77.933732,13.0753913],[77.9336165,13.0745371],[77.9318276,13.0739544],[77.9262263,13.0758673],[77.9274904,13.0801381],[77.9270388,13.0826638],[77.924457,13.0820459],[77.9183846,13.0792628],[77.9174028,13.080768],[77.9133225,13.0808363],[77.9167397,13.0862322],[77.9160667,13.0876018],[77.9110975,13.0960133],[77.9076349,13.0965109],[77.9015351,13.0997927],[77.9013417,13.1023915],[77.9080925,13.1063816],[77.9084615,13.1070821],[77.911671,13.1089664],[77.9141243,13.1110586],[77.9143281,13.117865],[77.9151767,13.1181587],[77.9154073,13.1190355],[77.9236424,13.1159292],[77.92307,13.1125261],[77.925228,13.1122772],[77.9254997,13.1106817],[77.9312819,13.1101202],[77.9323376,13.1090398],[77.937384,13.1079094],[77.9366292,13.1139613],[77.9393155,13.1249071],[77.9458032,13.1233553],[77.9464215,13.1247923],[77.9474544,13.1246339],[77.9486218,13.1273905],[77.9562348,13.1260596],[77.9577717,13.1301041],[77.9554874,13.1398761],[77.9594571,13.1512823],[77.9573958,13.1518931],[77.9588179,13.1571534],[77.9530909,13.1603414],[77.9553884,13.1628355],[77.9555702,13.1692126],[77.9542882,13.1698412],[77.9553925,13.1761998],[77.9570898,13.1761089],[77.9583507,13.181523],[77.9609152,13.1816306],[77.961604,13.1863262],[77.962914,13.1864569],[77.9638789,13.1891095],[77.9624998,13.1893133],[77.9625236,13.191311],[77.9610341,13.1926357],[77.9610348,13.1947282],[77.9595452,13.1955603],[77.960603,13.1999213],[77.9551648,13.2006416],[77.9563836,13.204171],[77.9547788,13.2054279],[77.9563393,13.2097435],[77.9579935,13.2184567],[77.9513185,13.2191321],[77.9514095,13.2147526],[77.9481067,13.2149976],[77.9452832,13.2139453],[77.9459256,13.2181211],[77.9466132,13.2189887],[77.9512321,13.2233624],[77.954822,13.2261499],[77.9595007,13.228711],[77.9638984,13.2325377],[77.9633746,13.2385895],[77.9650349,13.2372285],[77.964968,13.243818],[77.9557147,13.2484037],[77.9486008,13.2497616],[77.9456418,13.2434351],[77.935213,13.2457942],[77.929004,13.2378922],[77.9257703,13.2394204],[77.923348,13.2384989],[77.9206631,13.2392179],[77.9141166,13.2394042],[77.913848,13.2316036],[77.9115781,13.2309982],[77.9086856,13.2311342],[77.9001696,13.2331552],[77.8909199,13.2341908],[77.8996628,13.2414034],[77.902191,13.2417376],[77.9047011,13.2447745],[77.9056428,13.2502204],[77.9044617,13.2501392],[77.9053665,13.2523341],[77.9047351,13.2535346],[77.9034025,13.2544935],[77.900458,13.2555706],[77.8907875,13.2572208],[77.8885907,13.2504476],[77.884826,13.2505833],[77.8845168,13.2495483],[77.8800692,13.2501133],[77.8763184,13.2461135],[77.8763415,13.2452819],[77.8741085,13.2435871],[77.8784822,13.2389998],[77.8765953,13.2339696],[77.8707825,13.2339152],[77.8636406,13.24078],[77.8627412,13.237214],[77.8600196,13.2327214],[77.8579994,13.2281294],[77.8582907,13.2200305],[77.8500195,13.2191619],[77.8488476,13.2205402],[77.8477912,13.2207344],[77.8507689,13.2407201],[77.8340947,13.2467875],[77.8318087,13.2486766],[77.8241911,13.2505823],[77.823826,13.2514259],[77.8213297,13.2526185],[77.8184937,13.2485879],[77.8177976,13.2466082],[77.8170547,13.2470645],[77.8144085,13.2395117],[77.8075564,13.2431255],[77.809087,13.2468545],[77.8108773,13.2461725],[77.8154146,13.2534758],[77.8184966,13.2535579],[77.8209677,13.2581733],[77.8142454,13.2608513],[77.8087962,13.2614825],[77.8113874,13.2678421],[77.8114618,13.2775834],[77.8130676,13.2822913],[77.8150003,13.284999],[77.8157019,13.2876073],[77.8161286,13.2936089],[77.8158876,13.2975588],[77.8185502,13.2976092],[77.8221728,13.2969502],[77.822585,13.2907586],[77.8295529,13.2906742],[77.8292509,13.3005673],[77.8276265,13.3006619],[77.8276309,13.3054881],[77.8144436,13.3042516],[77.8144422,13.3094328],[77.8101826,13.3100743],[77.810932,13.3122729],[77.8120258,13.3120608],[77.8124178,13.3130055],[77.8137839,13.3125765],[77.8133413,13.3109539],[77.815026,13.3101725],[77.817278,13.3101775],[77.8184904,13.3153752],[77.8226246,13.318811],[77.8271686,13.3270148],[77.8210301,13.3285997],[77.817448,13.3311117],[77.8145771,13.3320013],[77.8102335,13.3344045],[77.8102461,13.338341],[77.8035679,13.3379956],[77.7989059,13.3392732],[77.7963762,13.3406734],[77.7933385,13.3429095],[77.792724,13.3446538],[77.7911082,13.3456746],[77.7910975,13.349724],[77.790474,13.3508672],[77.7879119,13.3519465],[77.7785375,13.3521644],[77.7747153,13.3530532],[77.7729655,13.3541416],[77.7719492,13.3560303],[77.7677484,13.3571493],[77.7645812,13.3588427],[77.7608927,13.3599934],[77.7541424,13.3637956],[77.7532982,13.3628189],[77.7518766,13.362755],[77.7506183,13.3592924],[77.7462285,13.3600858],[77.7440642,13.3611172],[77.7427852,13.3602501],[77.7424248,13.3592695],[77.7438135,13.3579357],[77.7437576,13.356851],[77.7451369,13.3553273],[77.74389,13.3537506],[77.740342,13.356961],[77.740121,13.3581859],[77.7372556,13.3604016],[77.7359496,13.3610033],[77.7351737,13.3598602],[77.7333416,13.3606473],[77.7300922,13.3608701],[77.7286803,13.3622807],[77.7278726,13.3623895],[77.7277068,13.3632347],[77.7264883,13.3633165],[77.7263168,13.3616308],[77.7292427,13.3603507],[77.7285468,13.3516917],[77.718582,13.3525676],[77.7163893,13.3517775],[77.7161958,13.352704],[77.7175531,13.3534899],[77.7167497,13.3656295],[77.710957,13.366228],[77.7106522,13.3655186],[77.7093505,13.3656546],[77.7090132,13.3645158],[77.7104025,13.3642939],[77.7102083,13.3632364],[77.708265,13.3630472],[77.70796,13.3619581],[77.7058507,13.3622841],[77.704964,13.3610732],[77.6986629,13.3589825],[77.6988868,13.3509468],[77.6993891,13.3482846],[77.7031316,13.3460555],[77.7034449,13.3442521],[77.7034722,13.3427562],[77.7013069,13.3404744],[77.6998891,13.3373745],[77.6962663,13.3383291],[77.6950763,13.3411134],[77.688069,13.3484183],[77.6879032,13.3498872],[77.6852956,13.3503804],[77.6842943,13.351872],[77.6821571,13.3510048],[77.681949,13.3491518],[77.6799386,13.3448771],[77.6670574,13.3479932],[77.6670578,13.3507094],[77.6559443,13.3582313],[77.6568588,13.363537],[77.6570537,13.3727115],[77.6619565,13.3774564],[77.6595708,13.3834676],[77.651959,13.3870388],[77.6577254,13.3930627],[77.6575598,13.3978217],[77.6532573,13.3984187],[77.6512371,13.3960644],[77.6502305,13.3933031],[77.6478438,13.3918254],[77.6384567,13.3938007],[77.6379348,13.3854126],[77.636513,13.3866691],[77.6339092,13.3759173],[77.6300918,13.3766495],[77.6283146,13.3776302],[77.6272852,13.3767851],[77.6209428,13.3753568],[77.621155,13.3782267],[77.6221981,13.3822581],[77.6209194,13.384676],[77.6169494,13.3848927],[77.6127577,13.3871251],[77.6162288,13.3936017],[77.6191137,13.4023606],[77.6120111,13.4036666],[77.6074497,13.4071869],[77.6069097,13.4057858],[77.6074547,13.4032143],[77.6065686,13.3997839],[77.6045976,13.3978539],[77.6034271,13.3976502],[77.6023838,13.3982105],[77.6015798,13.404054],[77.5998577,13.404899],[77.6004157,13.4099021],[77.5987536,13.410625],[77.5992147,13.4151445],[77.6015554,13.4159267],[77.6058905,13.4164694],[77.606043,13.4146029],[77.6066894,13.4145126],[77.6095516,13.4164698],[77.6140021,13.4185219],[77.6154471,13.42108],[77.6132632,13.4220425],[77.6104928,13.4245732],[77.6074502,13.4252373],[77.60652,13.4276331],[77.6057434,13.4355241],[77.6042493,13.437896],[77.6030715,13.4412991],[77.5999644,13.4392107],[77.5995723,13.436142],[77.5897884,13.4362536],[77.5902272,13.4351419],[77.5901126,13.4301976],[77.589097,13.4292212],[77.5899561,13.4275401],[77.5914621,13.4215295],[77.5934659,13.4212541],[77.5913702,13.4188268],[77.5895832,13.4207383],[77.584232,13.4215735],[77.5807787,13.4208994],[77.5643057,13.4204393],[77.559043,13.4186301],[77.551471,13.4196447],[77.551516,13.4233055],[77.5501556,13.4326287],[77.5503628,13.4342422],[77.5484415,13.4358731],[77.5459938,13.4377298],[77.5443503,13.4370468],[77.5370784,13.4364793],[77.5345504,13.4307523],[77.5284554,13.4317487],[77.522475,13.4315299],[77.5212977,13.434358],[77.5191455,13.4357174],[77.5168491,13.4393907],[77.5167789,13.4414108],[77.5159194,13.4427708],[77.515942,13.4438826],[77.5096437,13.4442412],[77.5041069,13.4454859],[77.504844,13.4486589],[77.5049153,13.453784],[77.5054916,13.455461],[77.50671,13.4566186],[77.5047008,13.4577971],[77.4997455,13.4588838],[77.4934819,13.4588904],[77.490781,13.4603523],[77.4885971,13.4609272],[77.4832621,13.467894],[77.4777524,13.4662964],[77.4775447,13.4666761],[77.4766164,13.4664098],[77.4714733,13.4693629],[77.468799,13.4677098],[77.4668455,13.4671546],[77.4613351,13.4628719],[77.4581416,13.4691099],[77.4545719,13.4686138],[77.4548014,13.4642841],[77.450313,13.4643396],[77.4490474,13.4630203],[77.4460732,13.46162],[77.4401025,13.4616261],[77.4330195,13.4639823],[77.4344012,13.4687411],[77.427789,13.4710067],[77.4256324,13.4709077],[77.4228619,13.4719296],[77.4248308,13.4815648],[77.4231226,13.4844711],[77.4216219,13.4855831],[77.4185324,13.4854661],[77.4155907,13.4860722],[77.4155269,13.4920108],[77.4079627,13.4967934],[77.4071728,13.4956591],[77.4041015,13.4942086],[77.4031548,13.4946607],[77.3998987,13.492686],[77.3961672,13.4937619],[77.3846631,13.4990683],[77.3780728,13.4897582],[77.3770984,13.4833269],[77.3722956,13.4831054],[77.3702131,13.4782152],[77.3733952,13.4700351],[77.3668148,13.4694518],[77.3661179,13.4635629],[77.3621281,13.4638835],[77.3584433,13.4630562],[77.3560699,13.4619306],[77.3525285,13.4586084],[77.3486176,13.4571843],[77.3483974,13.4465861],[77.3528073,13.4440512],[77.3533803,13.4403181],[77.3549086,13.4407431],[77.3568851,13.4376971],[77.3619707,13.4369182],[77.3625045,13.4344436],[77.36202,13.4303714],[77.3626758,13.428975],[77.3630085,13.4253413],[77.3628704,13.4200444],[77.3601191,13.4156648],[77.3584571,13.4148467],[77.3458898,13.4175615],[77.3445478,13.4075958],[77.3423379,13.3986649],[77.3432523,13.3970968],[77.342455,13.391927],[77.3435255,13.3913661],[77.3408366,13.3770343],[77.3418718,13.3756555],[77.3436897,13.374793],[77.3456977,13.3746261],[77.3424449,13.3656454],[77.3422887,13.360588],[77.3412507,13.3571078],[77.3413112,13.3541295],[77.3423457,13.3508349],[77.3445659,13.3501346],[77.3438244,13.3396989],[77.3409863,13.3376738],[77.3407328,13.3356309],[77.3396208,13.3339359],[77.3385211,13.3291096],[77.3318088,13.3282192],[77.3292575,13.3303696],[77.327508,13.3283103],[77.3252846,13.3280005],[77.323936,13.3263421],[77.3119143,13.3220843],[77.3086687,13.3106083],[77.2866051,13.3111526],[77.2811969,13.3103958],[77.2806404,13.3056546],[77.28079,13.3010944],[77.2816591,13.2972757],[77.2752539,13.2976799],[77.2740301,13.2999844],[77.2696251,13.3056139],[77.2698245,13.3111513],[77.2668999,13.3111039],[77.2547318,13.3088746],[77.2531005,13.3044492],[77.2526635,13.3017327],[77.2505683,13.302039],[77.2494471,13.3017085],[77.2463229,13.3023972],[77.2431111,13.3023987],[77.2414555,13.3046908],[77.2402251,13.3085058],[77.2355325,13.3099812],[77.2335342,13.3096204],[77.2316988,13.3126673],[77.2290131,13.3133056],[77.2282962,13.3090259],[77.2244717,13.3002641],[77.2203315,13.2855139],[77.220892,13.2788114],[77.2200321,13.2744458],[77.2221431,13.2683482],[77.2193358,13.2629484],[77.2160502,13.2615621],[77.2045987,13.2622753],[77.1999127,13.2682469],[77.1989898,13.2677771],[77.1962906,13.267823],[77.1937115,13.2682304],[77.1924613,13.2690172],[77.1918388,13.270328],[77.1919223,13.2722894],[77.1911616,13.2747482],[77.1883939,13.2763985],[77.1869899,13.2724035],[77.1855017,13.2615164],[77.1834891,13.2576165],[77.1861923,13.2551934],[77.1866067,13.2516048],[77.188164,13.2505353],[77.1902093,13.2479608],[77.1924519,13.2435579],[77.191837,13.2411408],[77.190212,13.2378366],[77.1897954,13.2375511],[77.1858179,13.2385194],[77.1861513,13.236532],[77.1847143,13.2358592],[77.1826878,13.2287201],[77.1863516,13.2251801],[77.1892042,13.2251999],[77.1940554,13.2243011],[77.1946266,13.2191248],[77.1944633,13.2119802],[77.1950969,13.2066254],[77.1997286,13.2040233],[77.2002488,13.2031562],[77.1993414,13.1968023],[77.2009027,13.1962715],[77.2009542,13.1945069],[77.2029528,13.1946084],[77.2028704,13.1973214],[77.2075024,13.1966163],[77.2064909,13.190956],[77.2048137,13.1864076],[77.2035887,13.1844771],[77.207555,13.1788445],[77.2074014,13.1735823],[77.2089417,13.1730617],[77.2100444,13.17095],[77.2133534,13.1685521],[77.2143199,13.1642885],[77.2162757,13.1616054],[77.2160982,13.1600143],[77.2143707,13.1578673],[77.2138593,13.1564555],[77.2132124,13.1516008],[77.2136038,13.1497507],[77.2174979,13.1448677],[77.2198087,13.1457237],[77.2284159,13.1465466],[77.2304341,13.144608],[77.2315905,13.147341],[77.2363255,13.1465027],[77.2416259,13.146364],[77.2440277,13.1480293],[77.2454184,13.1496542],[77.2489311,13.1518962],[77.2513617,13.1515145],[77.2552896,13.1525466],[77.2605743,13.1511936],[77.2661905,13.1505997],[77.2697169,13.1524515],[77.2732719,13.1522294],[77.2750423,13.1525825],[77.27488,13.1437984],[77.2739412,13.1397856],[77.2727507,13.1418997],[77.2709244,13.1431461],[77.2691536,13.143796],[77.2673556,13.1435241],[77.2670793,13.1426564],[77.2671656,13.1353907],[77.2654257,13.1293712],[77.2654265,13.1275818],[77.2667372,13.1223647],[77.2684106,13.1188513],[77.2689547,13.118437],[77.2731543,13.1183351],[77.2751157,13.1185573],[77.2764691,13.11945],[77.2778263,13.1253978],[77.2784417,13.1259735],[77.2792964,13.1259906],[77.2791254,13.1337665],[77.2807343,13.1343247],[77.2847454,13.1343533],[77.2854117,13.1279282],[77.286788,13.121694],[77.2882015,13.1206643],[77.2919477,13.121169],[77.2928278,13.110104],[77.2964939,13.109123],[77.302717,13.110882],[77.3127081,13.1072029],[77.3143407,13.1061426],[77.3092771,13.0832447],[77.3096409,13.0786844],[77.3087184,13.0651807],[77.3091618,13.0637002],[77.3093571,13.0549679],[77.3110509,13.0463214],[77.3200513,13.0485348],[77.3221052,13.0484168],[77.3238775,13.0470155],[77.3246222,13.0487924],[77.3257698,13.0497205],[77.3283874,13.0502146],[77.3291728,13.0498791],[77.3311274,13.0429106],[77.3311076,13.0410351],[77.3297185,13.0399096],[77.3296582,13.0391396],[77.3302427,13.0363561],[77.3299616,13.0325854],[77.3291967,13.0311046],[77.3301032,13.0293477],[77.3299629,13.0260705],[77.3265605,13.024372],[77.3254534,13.0229109],[77.3278322,13.0088749],[77.322819,13.0091107],[77.3220741,13.0087749],[77.3219334,13.0078668],[77.328257,12.9812251],[77.3287124,12.9769013],[77.3270922,12.9768359],[77.3255304,12.976003],[77.3261798,12.9683566],[77.3266922,12.9684059],[77.3300604,12.9657802],[77.3301043,12.963263],[77.3324686,12.9490592],[77.33429,12.9494627],[77.335133,12.9476747],[77.3359887,12.9323687],[77.3402881,12.9335751],[77.3395532,12.9127404],[77.3388463,12.9106513],[77.3398408,12.9045199],[77.3412786,12.9002056],[77.3435509,12.8887651],[77.3358224,12.8866932],[77.3356332,12.8875771],[77.3344361,12.8877815],[77.333198,12.8878965],[77.332109,12.8871354],[77.3323304,12.8860197],[77.3345983,12.8835842],[77.3356286,12.8835284],[77.3358304,12.8840107],[77.3366708,12.883182],[77.3361403,12.8803236],[77.3366061,12.8768929],[77.3449826,12.8764518],[77.34389,12.8751968],[77.3440713,12.8703324],[77.3452262,12.8699623],[77.349067,12.869626],[77.3522255,12.8701733],[77.3541826,12.8697981],[77.3661457,12.8702461],[77.3680591,12.8620399],[77.3698362,12.8568512],[77.372391,12.855955],[77.3794344,12.8552459],[77.3794471,12.8566543],[77.3799784,12.8573264],[77.3823752,12.857287],[77.384151,12.858798],[77.3858167,12.8588521],[77.3878682,12.859993],[77.3884953,12.8597471],[77.3891542,12.8604536],[77.3898295,12.8604141],[77.3919853,12.8652643],[77.3935406,12.8665919],[77.3951501,12.8667467],[77.3949205,12.8697261],[77.400411,12.8660742],[77.4020816,12.8656433],[77.4019543,12.8692726],[77.402591,12.8709896],[77.4052603,12.8741149],[77.4081923,12.8755671],[77.41138,12.8761943],[77.4159604,12.875232],[77.4152871,12.8717412],[77.4185461,12.8713899],[77.420456,12.8715245],[77.4243476,12.8736121],[77.4254006,12.8733443],[77.4268372,12.8750752],[77.4281251,12.8755521],[77.428284,12.8751824],[77.431301,12.8749113],[77.4305856,12.8701891],[77.4243284,12.8701407],[77.4187695,12.8693493],[77.4208429,12.8665277],[77.4221936,12.86349],[77.4255328,12.8591828],[77.4292357,12.8567837],[77.4274864,12.8510086],[77.4330865,12.8510842],[77.4377011,12.8497418],[77.4339779,12.8445136],[77.4337667,12.8432174],[77.4348525,12.8417926],[77.4346838,12.8386925],[77.4323873,12.8393217],[77.4323451,12.8383001],[77.4303001,12.8386761],[77.4296284,12.8390741],[77.4299553,12.8396834],[77.4224916,12.8355639],[77.421187,12.8320059],[77.4199057,12.8262366],[77.429763,12.8229987],[77.4326088,12.8228108],[77.4335009,12.8234157],[77.4352066,12.8198814],[77.434118,12.8172678],[77.4343942,12.815756],[77.4363502,12.8127824],[77.4362152,12.8096823],[77.4388142,12.8103379],[77.4402586,12.8098708],[77.4440069,12.8066532],[77.4437702,12.8073787],[77.4448331,12.8096587],[77.4462519,12.8098229],[77.4458645,12.8117587],[77.4464489,12.814911],[77.4482254,12.8155106],[77.4492385,12.8187335],[77.4532379,12.8179405],[77.4533176,12.8174188],[77.4546628,12.8166595],[77.459267,12.8108908],[77.4611102,12.8073309],[77.464603,12.8092677],[77.4666953,12.8089681],[77.4692988,12.80999],[77.4694711,12.8109872],[77.4710846,12.8115278],[77.4762911,12.8119379],[77.4763464,12.8098331],[77.4787826,12.8114521],[77.4777575,12.8064435],[77.4814224,12.8029525],[77.4831225,12.8023005],[77.4796099,12.7990276],[77.4777178,12.7983801],[77.4732799,12.7991764],[77.4713385,12.7980446],[77.470005,12.7939418],[77.4718825,12.7885807],[77.4766317,12.7849004],[77.4785241,12.780534],[77.4763121,12.76899],[77.4756308,12.7669329],[77.4740791,12.7645765],[77.4762664,12.7619327],[77.4763158,12.7606584],[77.4756987,12.7588815],[77.4753455,12.7596103],[77.4745878,12.7587949],[77.4749197,12.7578148],[77.4738409,12.7572899],[77.4739709,12.7566092],[77.4756228,12.7541874],[77.4760027,12.7525642],[77.4800653,12.7502192],[77.4819629,12.749833],[77.4844637,12.7477814],[77.4854251,12.7438327],[77.4864318,12.7428125],[77.4927046,12.7415673],[77.4930962,12.7400482],[77.4964346,12.7397685],[77.5026847,12.7371879],[77.5028465,12.7356469],[77.5066189,12.7362903],[77.5079393,12.7375987],[77.5127686,12.7467969],[77.5195509,12.7419393],[77.5171091,12.7357448],[77.5218077,12.7316837],[77.5316086,12.7513701],[77.5323579,12.751529],[77.5333343,12.7532749],[77.5331856,12.7543429],[77.5346978,12.7559154],[77.5409501,12.7481156],[77.5408129,12.7494091],[77.5431302,12.7589561],[77.5455138,12.7659416],[77.5459953,12.7661009],[77.545635,12.7671067],[77.5460999,12.7695514],[77.5473896,12.7704218],[77.5505512,12.7708791],[77.5516828,12.7724252],[77.5517053,12.7732879],[77.5512037,12.7735094],[77.5494943,12.7741926],[77.5471173,12.7742016],[77.5438491,12.7758357],[77.5470837,12.7823646],[77.549435,12.7852961],[77.5476257,12.7898872],[77.5452545,12.7924052],[77.5434091,12.7932602],[77.5423349,12.7947284],[77.5421345,12.7985464],[77.5458022,12.8007452],[77.5474988,12.801405],[77.5559966,12.7996051],[77.5529055,12.7896863],[77.5596197,12.7878302],[77.5613254,12.7879319],[77.5621859,12.7887974],[77.5635624,12.7881495],[77.5622689,12.7867394],[77.5620883,12.7843302],[77.5612239,12.7832618],[77.557889,12.782477],[77.5563529,12.7810594],[77.5561787,12.7773085],[77.5586809,12.7690545],[77.5585768,12.7653492],[77.5631442,12.7607879],[77.5664128,12.7592331],[77.5707436,12.7622575],[77.571842,12.7671299],[77.5708541,12.7716476],[77.57095,12.7770884],[77.5714132,12.7788786],[77.5772472,12.7858941],[77.5797185,12.7877855],[77.5813813,12.7869131],[77.5813114,12.7865426],[77.5882195,12.7834041],[77.59213,12.7798297],[77.5920379,12.7760498],[77.5951881,12.7694649],[77.5956694,12.7656712],[77.5951714,12.7656374],[77.5964431,12.7640057],[77.5979498,12.7579815],[77.5984309,12.7582391],[77.5960742,12.7547027],[77.5953259,12.7515304],[77.5941263,12.7504947],[77.5907212,12.7501574],[77.5853763,12.7517033],[77.5817935,12.7517622],[77.5779835,12.7509303],[77.5765478,12.7511943],[77.5754771,12.7498056],[77.5752923,12.7484844],[77.5735202,12.7468041],[77.5706394,12.7428203],[77.5696729,12.7391396],[77.5679936,12.7354433],[77.5684088,12.7344858],[77.5716985,12.7336492],[77.5727947,12.732488],[77.5718527,12.7310174],[77.5707627,12.7301817],[77.5624509,12.7321597],[77.5575853,12.7309452],[77.5571435,12.7275076],[77.5592547,12.7214726],[77.5590976,12.7132608],[77.5612611,12.7086757],[77.5680703,12.7012031],[77.5757138,12.7038556],[77.5786811,12.7082348],[77.5946923,12.7209209],[77.6030957,12.7163575],[77.6108401,12.7132985],[77.6154899,12.7092138],[77.612915,12.6991244],[77.6056194,12.6922164],[77.6022291,12.6803679],[77.5995683,12.6732501],[77.5953197,12.6685607],[77.5955343,12.6614845],[77.5970363,12.6580091],[77.5988817,12.6671789],[77.6237726,12.6737944],[77.6378703,12.6756995],[77.6556176,12.6819057],[77.6632533,12.6832724],[77.6770658,12.6793271],[77.6754971,12.6735714],[77.6773442,12.6721565],[77.6771336,12.6675805],[77.6761467,12.663449],[77.6788697,12.6619278],[77.6782672,12.6606151],[77.6786997,12.6602404],[77.6846297,12.6600235],[77.6896487,12.6584938],[77.6918922,12.660536],[77.7027009,12.6608015],[77.7049976,12.6617146],[77.7082252,12.6657084],[77.710863,12.6663936],[77.7122145,12.67345],[77.7116678,12.6813484],[77.7119605,12.6833941],[77.7232111,12.6793849],[77.7228069,12.6790572],[77.7231904,12.6789332],[77.7234278,12.6739808],[77.7247812,12.6708043],[77.7256885,12.6708015],[77.7300733,12.6728876],[77.7387223,12.6720546],[77.7410016,12.6737335],[77.7408064,12.6775545],[77.7416837,12.6821132],[77.7409913,12.6854351],[77.7374696,12.6891508],[77.7359598,12.6917702],[77.7356782,12.693206],[77.7363038,12.6958555],[77.7375615,12.6983929],[77.7410414,12.7008037],[77.7472678,12.6995659],[77.7541616,12.6972945],[77.7576065,12.6976047],[77.7606943,12.6968521],[77.7625707,12.6969587],[77.7650689,12.7026427],[77.764545,12.7024345],[77.7661014,12.7090079],[77.7661273,12.7129722],[77.7688554,12.7135487],[77.7697045,12.7132055],[77.7706956,12.7182585],[77.774408,12.7245132],[77.7735956,12.7248093],[77.7732415,12.7243742],[77.7651799,12.7258742],[77.7610595,12.7272585],[77.7609695,12.7296432],[77.7629969,12.7364006],[77.7648362,12.7378441],[77.7695915,12.740256],[77.773335,12.7405921],[77.7768363,12.740288],[77.7798057,12.7414969],[77.7840125,12.7411344],[77.787971,12.7447985],[77.7901398,12.7462432],[77.7920018,12.7467495],[77.7950083,12.7582308],[77.7853205,12.7621097],[77.7828519,12.7640852],[77.7827066,12.7649863],[77.7810447,12.7657679],[77.7800409,12.7677025],[77.7789033,12.7679585],[77.7823095,12.7733376],[77.7839645,12.7744497],[77.784925,12.7770663],[77.7880467,12.7793917],[77.7891575,12.7816654],[77.7908193,12.7834325],[77.7945072,12.790532],[77.7947119,12.7917035],[77.7960496,12.7921685],[77.7967098,12.7936091],[77.7978925,12.7935241],[77.7994225,12.7957674],[77.799815,12.7958604],[77.7999816,12.7947537],[77.8004664,12.7944574],[77.8013574,12.7962853],[77.8023207,12.7962978],[77.8041494,12.7942434],[77.8059587,12.79455],[77.8066051,12.7941297],[77.8081668,12.7950621],[77.8090335,12.7968339],[77.8077808,12.798465],[77.807492,12.7996848],[77.805337,12.8003122],[77.8044844,12.8030188],[77.8039857,12.8030079],[77.8039643,12.8047924],[77.7999782,12.8054326],[77.8022409,12.8171441],[77.8097787,12.8158227],[77.8087253,12.8186778],[77.8079502,12.8232562],[77.8083084,12.8253104],[77.80957,12.8279802],[77.8100554,12.8310227],[77.8043277,12.8330471],[77.7990414,12.8337207],[77.7955892,12.8348008],[77.7933089,12.8398295],[77.7925886,12.843407],[77.7948313,12.8454995],[77.7967972,12.8449627],[77.7990037,12.8519456],[77.8028915,12.8506464],[77.8078988,12.84768],[77.8095915,12.8486884],[77.8103301,12.851326],[77.8111427,12.85253],[77.8152377,12.8559264],[77.8229176,12.8559935],[77.8256917,12.8604032],[77.8276339,12.8608239],[77.8300685,12.8621143],[77.8330786,12.8620165],[77.8320647,12.8649081],[77.8325927,12.8675591],[77.8368987,12.8703585],[77.837838,12.8691283]]]}}]}